Building No.,Building Name,Address,City,ZIP
1,DAVENPORT HALL,607 S. MATHEWS,URBANA,61801
2,"ART-EAST ANNEX, STUDIO 2",1301 S. GOODWIN,URBANA,61801
3,MCKINLEY HEALTH CENTER,1109 S. LINCOLN,URBANA,61801
4,HARDING BAND BUILDING,1103 S. SIXTH,CHAMPAIGN,61820
5,GYM ANNEX,1402 W. SPRINGFIELD,URBANA,61801
6,ARMORY,505 E. ARMORY,CHAMPAIGN,61820
7,FOELLINGER AUDITORIUM,709 S. MATHEWS,URBANA,61801
8,AGRICULTURAL ENGR SCIENCES BLDG,1304 W. PENNSYLVANIA,URBANA,61801
9,ELECTRICAL ENGR ANNEX,104  S. BURRILL AVE.,URBANA,
10,CHEMISTRY ANNEX,601 S. MATHEWS,URBANA,61801
11,CERAMICS KILN HOUSE,107 S. GOODWIN,URBANA,61801
12,NOYES LABORATORY OF CHEMISTRY,505 S. MATHEWS,URBANA,61801
13,TALBOT LABORATORY,104 S. WRIGHT,URBANA,61801
14,ICE ARENA,406 E. ARMORY,CHAMPAIGN,61820
15,ENGINEERING HALL,1308 W. GREEN,URBANA,61801
16,ELECTRICAL ENGR RES LAB,106  S. BURRILL AVE.,URBANA,
17,ADVANCED COMPUTATION BLDG,1011 W. SPRINGFIELD,URBANA,61801
18,"ART-EAST ANNEX, STUDIO 1",1208 PEABODY DR.,URBANA,61801
19,ORNAMENTAL HORTICULTURE BUILDING,1107 W. DORNER,URBANA,61801
20,PHYSIOLOGY RESEARCH LABORATORY,301 E. HAZELWOOD,CHAMPAIGN,61820
21,KENNEY GYMNASIUM,1406 W. SPRINGFIELD,URBANA,61801
22,"GREENHOUSE, NORTH",105  S. BURRILL AVE.,URBANA,
23,ILLINI UNION,1401 W. GREEN,URBANA,61801
24,NEWMARK CIVIL ENGINEERING BUILDING,205 N. MATHEWS,URBANA,61801
25,HARKER HALL,1305 W. GREEN,URBANA,61801
26,ALTGELD HALL,1409 W. GREEN,URBANA,61801
27,LINCOLN HALL,702 S. WRIGHT,URBANA,61801
28,AERONAUTICAL LABORATORY A,101 S. GOODWIN,URBANA,61801
29,MECHANICAL ENGINEERING LABORATORY,105 S. MATHEWS,URBANA,61801
30,AERO LAB B,102  S. BURRILL AVE.,URBANA,
31,DYNAMICS TESTING LABORATORY,609 E. CURTIS RD.,CHAMPAIGN,61820
32,NATURAL HISTORY BUILDING,1301 W. GREEN,URBANA,61801
33,OBSERVATORY,901 S. MATHEWS,URBANA,61801
34,MATERIALS SCIENCE AND ENG BLDG,1304 W. GREEN,URBANA,61801
35,VEGETABLE CROPS BUILDING,1103 W. DORNER,URBANA,61801
36,ENGINEERING RESEARCH LAB,103  S. MATHEWS AVE.,URBANA,
37,EVERITT ELEC & COMP ENGR LAB,1406 W. GREEN,URBANA,61801
38,FIRE STATION,1306 W. GREEN,URBANA,61801
39,MUSIC BUILDING,1114 W. NEVADA,URBANA,61801
40,STOCK PAVILION,1402 W. PENNSYLVANIA,URBANA,61801
41,LIBRARY,1408 W. GREGORY,URBANA,61801
42,TRANSPORTATION BUILDING,104 S. MATHEWS,URBANA,61801
43,GREGORY HALL,810 S. WRIGHT,URBANA,61801
44,ENGLISH BUILDING,608 S. WRIGHT,URBANA,61801
45,WOODSHOP & FOUNDRY,102  N. BURRILL AVE,URBANA,
46,HENRY ADMINISTRATION BUILDING,506 S. WRIGHT,URBANA,61801
47,HALFWAY HOUSE,S. MATHEWS AVE,CHAMPAIGN,61801
48,NUCLEAR RADIATION LABORATORY,201 S. GOODWIN,URBANA,61801
49,FILTRATION PLANT,1305  W. SPRINGFIELD,URBANA,
50,ARCHITECTURE BUILDING,608 E. LORADO TAFT,CHAMPAIGN,61820
51,BOTANY ANNEX & GRNHS,102  N. MATHEWS AVE.,URBANA,
52,KRANNERT CENTER FOR PERFORMING ARTS,500 S. GOODWIN,URBANA,61801
53,FIRE STATION GARAGE,1304 1/2 W. GREEN ST.,URBANA,
54,DAVID KINLEY HALL,1407 W. GREGORY,URBANA,61801
55,CERAMICS BUILDING,105 S. GOODWIN,URBANA,61801
56,SHELFORD VIVARIUM,606 E. HEALY,CHAMPAIGN,61820
57,ANIMAL GENETICS BUILDING,1301 W. LORADO TAFT,URBANA,61801
58,HUFF HALL,1206 S. FOURTH,CHAMPAIGN,61820
59,SURVEYING BUILDING,607 E. GREGORY,CHAMPAIGN,61820
60,SMITH MEMORIAL HALL,805 S. MATHEWS,URBANA,61801
61,UNIVERSITY HIGH SCHOOL,1212 W. SPRINGFIELD,URBANA,61801
62,CHILD DEVELOPMENT LABORATORY,1105 W. NEVADA,URBANA,61801
63,UNIVERSITY HIGH SCHOOL GYMNASIUM,1207 W. STOUGHTON,URBANA,61801
64,FREER HALL,906 S. GOODWIN,URBANA,61801
65,ILLINI HALL,725 S. WRIGHT,CHAMPAIGN,61820
66,SEITZ MATERIALS RESEARCH LAB,104 S. GOODWIN,URBANA,61801
67,LOOMIS LABORATORY OF PHYSICS,1110 W. GREEN ST.,URBANA,61801
68,HORTICULTURE FIELD LABORATORY,1707 S. ORCHARD,URBANA,61801
69,MUMFORD HALL,1301 W. GREGORY,URBANA,61801
70,CHEMICAL & LIFE SCIENCES LABORATORY,601 S. GOODWIN,URBANA,61801
71,STUDENT SERVICES ARCADE BUILDING,713 S. WRIGHT,CHAMPAIGN,61820
72,MEMORIAL STADIUM,1400 S. FIRST,CHAMPAIGN,61820
73,AGRICULTURAL BIOPROCESS LAB,1302 W. PENNSYLVANIA,URBANA,61801
74,INST GOV & PUBLIC AFFAIRS BLDG,1007 W. NEVADA,URBANA,61801
75,CHILDREN'S RESEARCH CENTER,51 E. GERTY,CHAMPAIGN,61820
76,PSYCHOLOGY LABORATORY,603 E. DANIEL,CHAMPAIGN,61820
77,PLANT SERVICES BUILDING-NORTHEAST,1005 W. WESTERN,URBANA,61801
78,SNYDER HALL,206 E. PEABODY,CHAMPAIGN,61820
79,SCOTT HALL,202 E. PEABODY,CHAMPAIGN,61820
80,WESTON HALL,204 E. PEABODY,CHAMPAIGN,61820
81,PEABODY FOOD SERVICE BUILDING,204 E. PEABODY,CHAMPAIGN,61820
82,GARNER HALL,201 E. GREGORY,CHAMPAIGN,61820
83,FORBES HALL,101 E. GREGORY,CHAMPAIGN,61820
84,HOPKINS HALL,103 E. GREGORY,CHAMPAIGN,61820
85,GREGORY FOOD SERVICE BUILDING,101-103 E. GREGORY,CHAMPAIGN,61820
86,LUNDGREN HALL,1201 S. FOURTH,CHAMPAIGN,61820
87,CLARK HALL,1203 S. FOURTH,CHAMPAIGN,61820
88,BARTON HALL,1205 S. FOURTH,CHAMPAIGN,61820
89,FLAGG HALL,1207 S. FOURTH,CHAMPAIGN,61820
90,NOBLE HALL,1209 S. FOURTH,CHAMPAIGN,61820
91,VAN DOREN HALL,1215 S. FOURTH,CHAMPAIGN,61820
92,TAFT HALL,1213 S. FOURTH,CHAMPAIGN,61820
93,1207 W. SPRINGFIELD,1207  W. SPRINGFIELD,URBANA,
94,ALICE CAMPBELL ALUMNI CENTER,601 S LINCOLN,URBANA,61801
95,SUPERCONDUCTIVITY CENTER,100 S. GOODWIN,URBANA,61801
97,"C-7 PARKING STRUCTURE, STUDENT STAFF",517 E. JOHN STREET,CHAMPAIGN,61820
98,UNIVERSITY POLICE,101  N. MATHEWS AVE.,URBANA,
99,UNDERGRADUATE LIBRARY,1402 W. GREGORY,URBANA,61801
100,PRESIDENT'S HOUSE,800 W. FLORIDA,URBANA,61801
101,BLAISDELL HALL,901 W. PENNSYLVANIA,URBANA,61801
102,SAUNDERS HALL,902 COLLEGE COURT,URBANA,61801
103,BABCOCK HALL,1002 COLLEGE COURT,URBANA,61801
104,CARR HALL,1001 W. PENNSYLVANIA,URBANA,61801
105,PENNSYLVANIA LOUNGE BUILDING,906 W. COLLEGE CT.,URBANA,61801
106,ILLINI UNION BOOKSTORE,807/809 S. WRIGHT,CHAMPAIGN,61820
107,ENVIRONMENTAL RESEARCH ANNEX,1009 W. WESTERN,URBANA,61801
108,COMPUTING APPLICATIONS BUILDING,605 E. SPRINGFIELD,CHAMPAIGN,61820
109,NATURAL RESOURCES BUILDING,607 E. PEABODY,CHAMPAIGN,61820
110,NUCLEAR PHYSICS LABORATORY,25 E. STADIUM DR.,CHAMPAIGN,61820
111,BUSEY HALL,1111 W. NEVADA,URBANA,61801
112,MECHANICAL ENGINEERING BUILDING,1206 W. GREEN,URBANA,61801
113,DAVENPORT HOUSE,807  S. WRIGHT ST.,CHAMPAIGN,
114,POMOLOGY GREENHOUSE-HORT FIELD LAB,1803 S. ORCHARD,URBANA,61801
115,EVANS HALL,1115 W. NEVADA,URBANA,61801
116,ROGER ADAMS LABORATORY,600 S. MATHEWS,URBANA,61801
117,NUCLEAR ENGINEERING LABORATORY,103 S. GOODWIN,URBANA,61801
118,ACTIVITIES & RECREATION CENTER,201 E. PEABODY,CHAMPAIGN,61820
119,"203 S GREGORY, URBANA",203 S. GREGORY,URBANA,61801
120,ABBOTT POWER PLANT,1117 S. OAK,CHAMPAIGN,61820
121,FSI - FIREMANSHIP TRAINING FACILITIES,11 GERTY DR.,CHAMPAIGN,61820
122,RADIO TRANSMITTER STATION,2520 S. FIRST ST. RD.,CHAMPAIGN,61820
123,CLASS MEMORIALS,,,
124,NATIONAL SOYBEAN RESEARCH CENTER,1101 W. PEABODY,URBANA,61801
125,MUMFORD HOUSE,1403 W. LORADO TAFT,URBANA,61801
126,LEVIS FACULTY CENTER,919 W. ILLINOIS,URBANA,61801
127,STORAGE BLDG BAND,SEE MEMO-GENERAL,,
128,GEOLOGICAL SURVEY LABORATORY,1116 S. OAK,CHAMPAIGN,61820
129,"810 S SIXTH, CHAMPAIGN",810 S. SIXTH,CHAMPAIGN,61820
130,COBLE HALL,801 S. WRIGHT,CHAMPAIGN,61820
131,TURNER HALL GREENHOUSES,1102 S. GOODWIN,URBANA,61801
132,FIELD HOUSE - ILLINOIS FIELD,,,
133,NATURAL RESOURCES GARAGE,608 E. PENNSYLVANIA,CHAMPAIGN,61820
134,NATURAL HISTORY SURVEY GREENHOUSE,614 E. PENNSYLVANIA,CHAMPAIGN,61820
135,1201 W. CALIFORNIA,1201  W. CALIFORNIA,URBANA,
136,"STUDENT-STAFF APTS-300 S GOODWIN, U",300 S. GOODWIN,URBANA,61801
137,"STUDENT STAFF APTS #2- 1107 GREEN ST., U",1107 W. GREEN,URBANA,61801
138,BURRILL HALL,407 S. GOODWIN,URBANA,61801
139,"1202 W GREEN, URBANA",1202 W. GREEN,URBANA,61801
140,"ILLINOIS SIMULATOR LABORATORY, BECKMAN INSTITUTE",2100 S. GOODWIN,URBANA,61801
141,LINCOLN AVENUE RESIDENCE HALL,1005 S. LINCOLN,URBANA,61801
142,ALLEN RESIDENCE HALL,1005 W. GREGORY,URBANA,61801
143,"608 S MATHEWS, URBANA",608 S. MATHEWS,URBANA,61801
144,DALKEY ARCHIVE PRESS (PSSB),1805 S. WRIGHT STREET,CHAMPAIGN,61820
145,"1205 1/2 W NEVADA, URBANA",1205 1/2 W. NEVADA,URBANA,61801
146,"1205 W NEVADA, URBANA",1205 W. NEVADA,URBANA,61801
147,1205 W. CALIFORNIA,1205  W. CALIFORNIA,URBANA,NULL
148,COORDINATED SCIENCE LABORATORY,1308 W. MAIN ST.,URBANA,61801
149,COMMERCE ANNEX,1407  W. LORADO TAFT,URBANA,
150,"1208 W SPRINGFIELD, URBANA",1208 W. SPRINGFIELD,URBANA,61801
151,"1204 W NEVADA, URBANA",1204 W. NEVADA,URBANA,61801
152,CIVIL ENGINEERING HYDROSYSTEMS LAB,205 N. MATHEWS,URBANA,61801
153,WAREHOUSE #1 - HYD ENGR LAB #1,100 BLOCK N. GREGORY,URBANA,61801
154,PERSONNEL SERVICES BUILDING,52 E. GREGORY,CHAMPAIGN,61820
155,VOLATILE CHEMICAL STORAGE BLDG,505 S. GOODWIN,URBANA,61801
156,LAW BUILDING,504 E. PENNSYLVANIA AVE.,CHAMPAIGN,61820
157,AFRICAN AMERICAN STUDIES,1201 W. NEVADA,URBANA,61801
158,BEVIER HALL,905 W. GOODWIN,URBANA,61801
159,WOHLERS HALL,1206 S. SIXTH,CHAMPAIGN,61820
160,EDUCATION BUILDING,1310 S. SIXTH ST.,CHAMPAIGN,61820
161,"1401 S MARYLAND, URBANA",1401 S. MARYLAND,URBANA,61801
162,ENGINEERING SENIOR DESIGN LAB,1013 W. WESTERN,URBANA,61801
163,PLANT SERVICES STORAGE BUILDING,1015 W. WESTERN,URBANA,61801
164,STRUCTURAL WAREHOUSE,1017 W. WESTERN,URBANA,61801
165,ANIMAL SCIENCES LABORATORY,1207 W. GREGORY,URBANA,61801
166,STATE FARM CENTER,1800 S. FIRST,CHAMPAIGN,61820
167,COLONEL WOLFE SCHOOL,403 E. HEALY,CHAMPAIGN,61820
168,"1005 W NEVADA, URBANA",1005 W. NEVADA,URBANA,61801
169,BURNSIDES RESEARCH LABORATORY,1208 W. PENNSYLVANIA,URBANA,61801
170,CENTRAL RECEIVING BUILDING,1609 S. OAK,CHAMPAIGN,61820
171,MEAT SCIENCE LABORATORY,1503 S. MARYLAND,URBANA,61801
172,FOREIGN LANGUAGES BUILDING,707 S. MATHEWS,URBANA,61801
173,AFRICAN AMERICAN CULTURE CENTER,708 S. MATHEWS,URBANA,61801
174,ENGINEERING SCIENCES BUILDING,1101 W. SPRINGFIELD,URBANA,61801
175,1009 W. NEVADA,1009  W. NEVADA,URBANA,
176,REHABILITATION EDUCATION CENTER,1207 S. OAK,CHAMPAIGN,61820
177,1204 W. OREGON,1204  W. OREGON,URBANA,
178,"MAILING CENTER-1611 S OAK, CHAMPAIGN",1611 S. OAK,CHAMPAIGN,61820
179,"ILLINI GROVE, SEWARD STALEY",905 W. PENNSYLVANIA,URBANA,61801
180,STU-STAFF AIR CONDITIONING CENTER,1109 W. GREEN,URBANA,61801
181,DANIELS HALL,1010 W. GREEN,URBANA,61801
182,NUCLEAR REACTOR LABORATORY,102 S. GOODWIN,URBANA,61801
183,WOOD ENGINEERING LABORATORY,1305 S. GOODWIN,URBANA,61801
184,1208 WEST NEVADA,1208 W. NEVADA,URBANA,61801
185,H P GAS REGULATING & REDUCING STA,1207 W. WESTERN,URBANA,61801
186,1116 W. ILLINOIS,1116  W. ILLINOIS,URBANA,
187,ENTOMOLOGY LABORATORY,1902 S. GRIFFITH DR.,CHAMPAIGN,61820
188,FRED TURNER STUDENT SERVICES BLDG,610 E. JOHN,CHAMPAIGN,61820
192,MEDICAL SCIENCES BUILDING,506 S. MATHEWS,URBANA,61801
193,SWANLUND ADMINISTRATION BUILDING,601 E. JOHN,CHAMPAIGN,61820
194,USDA NEMATOLOGY GREENHOUSE,1105 W. DONNER,URBANA,61801
195,"1203 W NEVADA, URBANA",1203 W. NEVADA,URBANA,61801
196,OPTICAL PHYSICS AND ENGINEERING BLDG,607 E. HEALY,CHAMPAIGN,61820
197,TURNER HALL,1102 S. GOODWIN,URBANA,61801
198,PHYSICAL PLANT SERVICE BUILDING,1501 S. OAK,CHAMPAIGN,61820
199,"1001 W NEVADA, URBANA",1001 W. NEVADA,URBANA,61801
200,1007 W. NEVADA,1007  W. NEVADA,URBANA,
201,GARAGE AND CAR POOL,1701 S. OAK ST.,CHAMPAIGN,61820
202,HORTICULTURE FIELD LAB STEEL BLDG,1801 S. ORCHARD,URBANA,61801
203,605 S. GOODWIN,605  S. GOODWIN,URBANA,
204,HYDROGEN LIQUEFIER BUILDING,1301 S. OAK,CHAMPAIGN,61820
205,"1203 W OREGON, URBANA",1203 W. OREGON,URBANA,61801
206,ILLINOIS SUSTAINABILITY TECHNOLOGY CNTR,19 E. HAZELWOOD DR.,CHAMPAIGN,61820
207,"1203 1/2 W NEVADA, URBANA",1203 1/2 W. NEVADA,URBANA,61801
208,ATMOSPHERIC SCIENCES BUILDING,105 S. GREGORY STREET,URBANA,61801
209,SPEECH AND HEARING SCIENCE,901 S. SIXTH,CHAMPAIGN,61820
210,DIGITAL COMPUTER LABORATORY,1304 W. SPRINGFIELD,URBANA,61801
211,1203 W. CALIFORNIA,1203  W. CALIFORNIA,URBANA,
212,1202 W. CALIFORNIA,1202  W. CALIFORNIA,URBANA,
213,ENVIRON HEALTH & SAFETY BLDG,101 S. GREGORY AVE.,URBANA,61801
214,"911 S SIXTH, CHAMPAIGN",911 S. SIXTH,CHAMPAIGN,61820
215,"909 S SIXTH, CHAMPAIGN",909 S. SIXTH,CHAMPAIGN,61820
216,POST OFFICE AND SNACK BAR -IL ORANGE,301 E. GREGORY,CHAMPAIGN,61820
217,HOUSING FOOD STORES,1321 S. OAK,CHAMPAIGN,61820
218,SCHOOL OF LABOR & EMPLOYMENT RELATIONS,504 E. ARMORY,CHAMPAIGN,61820
219,ART AND DESIGN BUILDING,408 E. PEABODY,CHAMPAIGN,61820
220,KRANNERT ART MUSEUM,500 E. PEABODY,CHAMPAIGN,61820
221,"805 W PENNSYLVANIA, URBANA",805 W. PENNSYLVANIA,URBANA,61801
222,PRINTING & PHOTOGRAPHIC SERV BLDG,54 E. GREGORY,CHAMPAIGN,61820
223,1207 W. STOUGHTON,1207  W. STOUGHTON,URBANA,
224,"1205 W OREGON, URBANA",1205 W. OREGON,URBANA,61801
225,1006 W. OREGON,1006  W. OREGON,URBANA,
226,"59 E ARMORY, CHAMPAIGN",59 E. ARMORY,CHAMPAIGN,61820
227,ORCHARD PLACE APARTMENTS,1800  S. ORCHARD,URBANA,
228,BECKMAN INSTITUTE,405 N. MATHEWS,URBANA,61801
229,"55 E ARMORY, CHAMPAIGN",55 E. ARMORY,CHAMPAIGN,61820
230,ORCHARD DOWNS LAUNDRY - NORTH,1900 S. ORCHARD,URBANA,61801
231,602 E. GREEN,602 E. GREEN,CHAMPAIGN,61856
232,NORTH CAMPUS CHILLER PLANT,305 N. MATHEWS AVE.,URBANA,61801
233,HOUSING MAINTENANCE SHOP,511 N. HAZELWOOD DRIVE,URBANA,61801
234,ARMORY AVENUE WAREHOUSE,24 E. ARMORY,CHAMPAIGN,61820
235,"512 E CHALMERS, CHAMPAIGN",512 E. CHALMERS,CHAMPAIGN,61820
236,ORCHARD DOWNS LAUNDRY - SOUTH,2054 S. ORCHARD,URBANA,61801
237,MICRO AND NANOTECHNOLOGY LABORATORY,208 N. WRIGHT ST.,URBANA,61801
238,"1207 W OREGON, URBANA",1207 W. OREGON,URBANA,61801
239,VET MED RESEARCH BLDG,1608  S. MARYLAND,URBANA,
240,ORCHARD DOWNS APARTMENTS,1900  S. ORCHARD (1900-2200 S. ORCH),URBANA,
241,TELEVISION BLDG,302  N. GOODWIN,URBANA,
242,MORRILL HALL,505 S. GOODWIN,URBANA,61801
243,"508 S SIXTH, CHAMPAIGN",508 S. SIXTH,CHAMPAIGN,61820
244,UNIVERSAL WASTE SYSTEM BUILDING,1409 S. OAK,CHAMPAIGN,61820
245,"205 S GOODWIN, URBANA",205 S. GOODWIN,URBANA,61801
246,710 S. GOODWIN,710  S. GOODWIN,URBANA,
247,"625 S. WRIGHT- suite 103, 201",625 S. WRIGHT ST.,CHAMPAIGN,
248,ORCHARD PLACE,S. ORCHARD,URBANA,
249,ORCHARD DOWNS COMMUNITY BUILDING,509 W. GEORGE HUFF COURT,URBANA,61801
250,"912 S FIFTH, CHAMPAIGN",912 S. FIFTH,CHAMPAIGN,61820
251,PRINTING SERVICES BUILDING,54  E. GREGORY DR.,CHAMPAIGN,
252,HOUSING WAREHOUSE,511 W. HAZELWOOD DRIVE,URBANA,61801
253,907 W. ILLINOIS,907  W. ILLINOIS,URBANA,
254,901 W. ILLINOIS,901  W. ILLINOIS,URBANA,
255,UNIVERSITY PRESS BUILDING,1325 S. OAK,CHAMPAIGN,61820
256,PLANT SCIENCES LABORATORY,1201 S. DORNER DRIVE,URBANA,61801
257,RICHARD T. UBBEN BASKETBALL COMPLEX,1750 S. FOURTH ST.,CHAMPAIGN,61820
258,"909 W NEVADA, URBANA",909 W. NEVADA,URBANA,61801
260,FORESTRY GREENHOUSE,1807  S. ORCHARD,URBANA,
261,ORCHARD SOUTH APARTMENTS,S. ORCHARD,URBANA,
262,"510 E CHALMERS, CHAMPAIGN",510 E. CHALMERS,CHAMPAIGN,61820
263,"57 E ARMORY, CHAMPAIGN",57 E. ARMORY,CHAMPAIGN,61820
265,602 S. SIXTH ST.,602  S. SIXTH ST.,CHAMPAIGN,NULL
266,1110 W. MAIN,1110  W. MAIN,URBANA,
267,"408 S GOODWIN, URBANA",408 S. GOODWIN,URBANA,61801
268,DANCE STUDIO,905 W. NEVADA,URBANA,61801
270,WASTE TRANSFER & MAT. RECOVERY FACILITY,10 ST. MARY'S ROAD,CHAMPAIGN,61820
271,1210 W. CALIFORNIA,1210  W. CALIFORNIA,URBANA,
272,WARDALL HALL - ISRH - WOMEN'S BLDG,1012 W. ILLINOIS ST.,URBANA,61801
273,TOWNSEND HALL - ISRH - MEN'S BLDG,918 W. ILLINOIS ST.,URBANA,61801
274,LOUNGE BUILDING - ISRH,1010 W. ILLINOIS ST.,URBANA,61801
275,FOOD SERVICE BUILDING - ISRH,1010 W. ILLINOIS ST.,URBANA,61801
276,LIBRARY AIR CONDITIONING CENTER CHILLER PLANT,608 E. GREGORY DRIVE,CHAMPAIGN,61820
277,POLICE TRAINING INSTITUTE - TACTICAL,609 1/2 E. CURTIS,CHAMPAIGN,61820
278,"1210 W SPRINGFIELD, URBANA",1210 W. SPRINGFIELD,URBANA,61801
279,"51 E ARMORY, CHAMPAIGN",51 E. ARMORY,CHAMPAIGN,61820
280,"CREDIT UNION BUILDING, UOFI EMPLOYEE",2201 S. FIRST ST.,CHAMPAIGN,61820
281,ADMIN INFORMATION TECHNOLOGY BLDG,50 E. GERTY,CHAMPAIGN,61820
282,STATE REGIONAL OFFICE BUILDING,2125 S. FIRST,CHAMPAIGN,61820
283,DRIVER TRAINING FACILITY,8 E. GERTY,CHAMPAIGN,61820
285,"912 W ILLINOIS, URBANA",912 W. ILLINOIS,URBANA,61801
286,907 W. NEVADA,907  W. NEVADA ST.,URBANA,
287,CLINICAL SKILLS LEARNING CENTER,1102 W. HAZELWOOD,URBANA,61801
288,PHYSICS RESEARCH LAB STORAGE BLDG,301 E. HAZELWOOD,CHAMPAIGN,61820
289,WATER SURVEY RESEARCH CENTER #2,30 BAILEY DR.,CHAMPAIGN,61820
290,FSI - FIRE STATION,GERTY DR.,CHAMPAIGN,61820
291,SHERMAN HALL - SINGLE GRAD HOUSING,909 S. FIFTH,CHAMPAIGN,61820
292,VETERINARY TEACHING HOSPITAL,1008 W HAZELWOOD DR.,URBANA,61801
294,FSI - CLASSROOM/OFF,11 GERTY DR.,CHAMPAIGN,61820
295,TRELEASE HALL - FARH - WOMEN'S BLDG,901 COLLEGE COURT,URBANA,61801
296,OGLESBY HALL - FARH - MEN'S BLDG,1005 COLLEGE COURT,URBANA,61801
297,FOOD SERVICE BUILDING - FARH,1001 COLLEGE COURT,URBANA,61801
298,PHYSICAL PLANT STORAGE BUILDING 'A',1501 S. OAK,CHAMPAIGN,61820
299,POLICE TRAINING INSTITUTE STORAGE,609 1/2 E. CURTIS,CHAMPAIGN,61820
300,ASTRONOMY BUILDING,1002 W. GREEN,URBANA,61801
301,CERL-MAIN BUILDING 1,2902 NEWMARK DR.,CHAMPAIGN,61820
302,DRIVER TRAINING SITE STORAGE BLDG,6 E. GERTY,CHAMPAIGN,61820
303,PLAY FIELD SERVICE BUILDING,1006 W. ST. MARYS RD.,URBANA,61801
304,TRACK STADIUM,1615 S. WRIGHT ST.,CHAMPAIGN,61820
305,CLAY HYDROLOGY LABORATORY,1835 S. OAK ST.,CHAMPAIGN,61820
306,BUILDING RESEARCH COUNCIL BUILDING,1 E. ST. MARYS RD.,CHAMPAIGN,61820
307,BIOLOGICAL CONTROL LABORATORY,1904 S. GRIFFITH DR.,CHAMPAIGN,61820
308,1208 W. CALIFORNIA,1208  W. CALIFORNIA,URBANA,
309,NATURAL HISTORY SURVEY STORAGE B #4,1823 S. OAK ST.,CHAMPAIGN,61820
310,301 S. WRIGHT,301  S. WRIGHT ST.,CHAMPAIGN,
311,NATURAL HISTORY SURVEY STORAGE B #3,1833 S. OAK ST.,CHAMPAIGN,61820
312,NATURAL HISTORY SURVEY STORAGE B #2,1831 S. OAK ST.,CHAMPAIGN,61820
313,NATURAL HISTORY SURVEY STORAGE B #1,1821 S. OAK ST.,CHAMPAIGN,61820
314,BUILDING RESEARCH COUNCIL LABORATORY,1800 S. GRIFFITH,CHAMPAIGN,61820
315,SHOP AND EQUIPMENT BUILDING,1825 S. OAK ST.,CHAMPAIGN,61820
316,ILLINOIS FIELD PRESS BOX,FLORIDA AVENUE AND WRIGHT STREET,URBANA,61801
317,TV ANNEX,1108  W. MAIN,URBANA,
319,ENGINEERING SENIOR DESIGN LAB ANNEX,1011 W. WESTERN,URBANA,61801
320,FLORICULTURE GREENHOUSE STOR,,,
321,NATURAL RESOURCE STUDIES ANNEX,1910 GRIFFITH DR.,CHAMPAIGN,61820
322,AQUATIC RESEARCH FIELD LABORATORY,51 E. HAZELWOOD DRIVE,URBANA,61801
323,PUBLIC SAFETY BUILDING,1110 W. SPRINGFIELD,URBANA,61801
324,GRAINGER ENGINEERING LIBRARY INFORMATION CENTER,1301 W. SPRINGFIELD,URBANA,61801
325,NATURAL HISTORY SURVEY STORAGE B #5,1817 S. OAK ST.,CHAMPAIGN,61820
326,AGRICULTURE SERVICES BUILDING,1917 S. WRIGHT,CHAMPAIGN,61820
327,SOUTH STUDIO 2 (SCULPTURE BUILDING),2122 GRIFFITH DR.,CHAMPAIGN,61820
328,SOUTH STUDIO 1 (ART STUDIO),2128 GRIFFITH DR.,CHAMPAIGN,61820
329,AGRICULTURE SERVICES WAREHOUSE,1919 S. WRIGHT,CHAMPAIGN,61820
330,ILLINOIS STATE ARCHAEOLOGICAL SURVEY REPOSITORY,2127 S. GRIFFITH DR.,CHAMPAIGN,61820
331,LIBRARY AND INFORMATION SCIENCE BLDG,501 E. DANIEL ST.,CHAMPAIGN,61820
332,ERLANGER HOUSE,303 W INDIANA,URBANA,61801
333,912 1/2 W. ILLINOIS,912 1/2 W. ILLINOIS,URBANA,
335,BECKWITH HALL,201 E. JOHN,CHAMPAIGN,61820
336,"MADIGAN LABORATORY, EDWARD R",1201 W. GREGORY DR.,URBANA,61801
337,PALEOBOTANICAL BUILDING,2115 GRIFFITH DR.,CHAMPAIGN,61820
338,SOUTH STUDIO 3 (GLASS SCULPTURE BUILDING,2116 GRIFFITH DR.,CHAMPAIGN,61820
339,TEMPLE HOYNE BUELL HALL,1400 W. PEABODY DR.,CHAMPAIGN,61820
340,902 W. CALIFORNIA,902  W. CALIFORNIA,URBANA,
341,VET MED FEED STORAGE BUILDING,2105 S. LINCOLN,URBANA,61801
343,TELECOMMUNICATIONS NODE #1,1211 W. WESTERN,URBANA,61801
344,BUILDING RESEARCH LABORATORY,1806 GRIFFITH DR.,CHAMPAIGN,61820
345,"1009 W SPRINGFIELD, URBANA",1009 W. SPRINGFIELD AVE.,URBANA,61801
346,501 S. WRIGHT,501  S. WRIGHT ST.,CHAMPAIGN,
347,MOTORCYCLE SAFETY OFFICE,4 GERTY DR.,CHAMPAIGN,61820
350,VET MED BASIC SCIENCES BUILDING,2001 S. LINCOLN,URBANA,61801
352,VETERINARY MEDICINE CHILLER PLANT,2004 S. LINCOLN,URBANA,61801
353,505 E GREEN,505 E. GREEN,CHAMPAIGN,61820
354,JAPAN HOUSE,2000 S. LINCOLN,URBANA,61801
355,TOWER ON 3RD,302 E. JOHN,CHAMPAIGN,61820
356,HELLENE GATEWAY PLAZA,,URBANA,
358,"1004 S FOURTH, C-POLICE TRAINING INS",1004 S. FOURTH ST.,CHAMPAIGN,61820
359,"1400 W PARK, URBANA - CLINICAL MED",1400 W. PARK,URBANA,61801
360,ATKINS TENNIS CENTER,1800 S. WRIGHT,URBANA,61801
362,"510 E DANIEL, CHAMPAIGN",510 E. DANIEL,CHAMPAIGN,61820
363,606 S. GREGORY,606  S. GREGORY ST.,URBANA,
364,CAMPUS RECREATION CENTER - EAST,1102 W. GREGORY DR.,URBANA,61801
365,"907 1/2 W NEVADA, URBANA",907 1/2 W. NEVADA,URBANA,61801
366,SOUTH STUDIO 4 (CERAMICS FACILITY),2110 GRIFFITH DR.,CHAMPAIGN,61820
367,"901 W OREGON, URBANA",901 W. OREGON,URBANA,61801
368,1307 W. PARK,1307  W. PARK,URBANA,
369,INTERNATIONAL STUDIES BUILDING,910 S. FIFTH ST.,CHAMPAIGN,61820
370,SOUTH STUDIO 5 (GRADUATE PHOTOGRAPHY),2108 GRIFFITH DR.,CHAMPAIGN,61820
371,SOUTH STUDIO 7 (GENERAL ARTS BUILDING),2111 GRIFFITH DR.,CHAMPAIGN,61820
372,SPECIAL MATERIALS STORAGE FACILITY,3 HAZELWOOD DR.,CHAMPAIGN,61820
373,SPURLOCK MUSEUM,600 S. GREGORY ST.,URBANA,61801
374,HARTLEY GARDENS,1800  S. LINCOLN,URBANA,
375,SOUTH STUDIO 6 (GRADUATE PAINTING FAC.),2109 GRIFFITH DR.,CHAMPAIGN,61820
376,CAMPBELL HALL,300 GOODWIN,URBANA,61801
377,"ACES LIBRARY, INFO. & ALUMNI CENTER",1101 S GOODWIN,URBANA,61801
378,ADMISSIONS AND RECORDS BUILDING,901 W. ILLINOIS,URBANA,61801
379,BIELFELDT ATHLETIC ADMINISTRATION BL,1700 S. FOURTH ST.,CHAMPAIGN,61820
380,CAMPUS RECREATION OUTDOOR CENTER,51 E. GREGORY DR.,CHAMPAIGN,61820
381,IRWIN ACADEMIC SERVICE CENTER,402 E. ARMORY,CHAMPAIGN,61820
382,CHANUTE FACILITY #933,1611 TITAN DRIVE,RANTOUL,61866
383,CHANUTE FACILITY #918,1605 TITAN DRIVE,RANTOUL,61866
384,CHANUTE FACILITY #927,1607 TITAN DRIVE,RANTOUL,61866
385,GOLF COURSE DRIVING RANGE BUILDING,SAVOY,SAVOY,61874
386,GOLF COURSE MAINTENANCE BUILDING,SAVOY,SAVOY,61874
387,GOLF COURSE CART STORAGE,SAVOY,SAVOY,61874
388,GOLF COURSE CART STORAGE,SAVOY,SAVOY,61874
389,GOLF COURSE PRO SHOP,SAVOY,SAVOY,61874
390,GOLF COURSE PUMP HOUSE #1,SAVOY,SAVOY,61874
391,GOLF COURSE PUMP HOUSE #2,SAVOY,SAVOY,61874
392,GOLF COURSE SUPERINTENDENT HOME,SAVOY,SAVOY,61874
393,MATHEWS AVE SEWAGE LIFT STATION,N. MATHEWS AVE.,URBANA,61801
394,SELF-SERVICE POSTAL STATION,1208 W. GREGORY DR.,URBANA,61801
395,ORCHARD DOWNS SEWAGE LIFT STATION,1108 GERTY DR.,URBANA,61801
396,FUEL OIL STORAGE TANKS,1717  S OAK STREET,CHAMPAIGN,61820
398,PHYSICAL PLANT STRG SALT SHED,1501  S OAK STREET,CHAMPAIGN,61820
399,SOILS MODEL TEST FACILITY - SCHNABEL,1412 INTERSTATE DRIVE,CHAMPAIGN,61821
 400-499,,,,
400,SPRAY CONTAINMENT BUILDING (GOLF CS),SAVOY,SAVOY,61874
401,ANIMAL SCIENCE CHILLER PLANT,1201 W. GREGORY DR.,CHAMPAIGN,61820
406,MORROW PLOTS,1400  W. GREGORY DR.,URBANA,
407,IRWIN INDOOR FOOTBALL FACILITY,301 E. PEABODY DR.,CHAMPAIGN,61820
408,RECEIVER & MICROWAVE STRUCTR,1108  W. MAIN STREET,URBANA,
409,ELECTRICAL AND COMPUTER ENGINEERING,306 N. WRIGHT ST.,URBANA,61801
410,BARDEEN QUADRANGLE,,URBANA,
411,CHANUTE FACILITY #916,1603 TITAN DRIVE,RANTOUL,61866
412,CHANUTE FACILITY #913,1319 TITAN DRIVE,RANTOUL,61866
 500-599,,,,
503,604 S. GREGORY ST.,604  S. GREGORY ST.,URBANA,
504,"1109 W MAIN, URBANA",1109 W. MAIN,URBANA,61801
505,1002 W. NEVADA,1002  W. NEVADA ST.,URBANA,
506,"909 W OREGON, URBANA",909 W. OREGON,URBANA,61801
507,"1817 &1819 S. NEIL ST, CHAMPAIGN",1819 S. NEIL ST,CHAMPAIGN,61820
508,1208 W. STOUGHTON,1208  W. STOUGHTON,URBANA,
509,"501 S. SIXTH, CHAMPAIGN",501 S. SIXTH,CHAMPAIGN,61820
511,1208 1/2 W. MAIN,1208 1/2 W. MAIN,URBANA,
512,1212 W. STOUGHTON,1212  W. STOUGHTON,URBANA,
513,ENGINEERING ANNEX,1011 W. WESTERN,URBANA,61801
515,1113 W. MAIN,1113  W. MAIN,URBANA,
516,"710 W. PARK, URBANA",710 W. PARK,URBANA,61801
518,1108 W. SPRINGFIELD,1108  W. SPRINGFIELD,URBANA,
519,"502 E JOHN, CHAMPAIGN",502 E JOHN,CHAMPAIGN,61820
520,201 W. SPRINGFIELD,201  W. SPRINGFIELD,CHAMPAIGN,
521,1114 W. SPRINGFIELD,1114  W. SPRINGFIELD,URBANA,
522,112 W. MAIN,112  W. MAIN,URBANA,
523,"201 W. CURTIS, SUITE 1",513 W. CURTIS RD.,CHAMPAIGN,61820
524,"1114 W CLARK, URBANA",1114 W. CLARK ST.,URBANA,61801
525,1104 W. MAIN,1104  W. MAIN,URBANA,
526,1110 W. SPRINGFIELD,1110  W. SPRINGFIELD,URBANA,
527,123 W. MAIN,123  W. MAIN,URBANA,
528,631 E. GREEN_703 S. WRIGHT_709 S. WRIGHT,703 S. WRIGHT,CHAMPAIGN,61820
529,ASSEMBLY HALL STORAGE BLDG,1800  S. FIRST,CHAMPAIGN,
530,DURST BUILDING - 1112 W. UNIVERSITY,1112 W. UNIVERSITY,URBANA,61801
531,"2212 FOX DRIVE, CHAMPAIGN",2212 FOX DRIVE,CHAMPAIGN,61820
532,"1107 S FOURTH, CHAMPAIGN",1107 S FOURTH,CHAMPAIGN,61820
533,"704 S. SIXTH, CHAMPAIGN",704 S. SIXTH,CHAMPAIGN,61820
534,"322 S. GREEN, CHAMPAIGN",322 S. GREEN,CHAMPAIGN,60607
535,"815 W. VANBUREN, CHICAGO",815 W. VANBUREN,CHICAGO,60607
536,"111 E. CHALMERS, CHAMPAIGN",111 E. CHALMERS,CHAMPAIGN,61820
537,"106 E. DANIEL, CHAMPAIGN",106 E. DANIEL,CHAMPAIGN,61820
538,"58 E. JOHN, CHAMPAIGN",58 E. JOHN,CHAMPAIGN,61820
539,"309 E. HEALY, CHAMPAIGN",309 E. HEALY,CHAMPAIGN,61820
540,"200 S. WACKER DR, CHICAGO",200 S. WACKER DR,CHICAGO,60606
541,"2301 FOX DRIVE, CHAMPAIGN",2301 FOX DRIVE,CHAMPAIGN,61820
542,1602 E. UNIVERSITY,1602  E. UNIVERSITY,URBANA,
543,VERMILION RIV OBSERV ANT O FAC,13589 S. UNION ROAD,DANVILLE,61834
544,VERMILION RIVER OBSERVATORY GARAGE,CO. RD. 2050 EAST,DANVILLE,61834
545,709 W. UNIVERSITY,709 W. UNIVERSITY,URBANA,61801
546,"267 DUPAGE, MAHOMET",267   DUPAGE,MAHOMET,
547,510 DEVONSHIRE,510 DEVONSHIRE,CHAMPAIGN,61820
548,BALLSTON TOWERS,"901 N. STUART, ST 800",ARLINGTON,22203
549,GETZ HALL - PHILLIPS TRACT,1735 N 1700 E(COTTONWOOD RD),URBANA,61801
551,RICHMOND STUDIO,1110 W. MAIN,URBANA,61801
552,BONDVILLE ROAD FIELD STATION,BONDVILLE ROAD,BONDVILLE,61815
553,MONTICELLO ROAD FIELD STATION,719 E. COUNTY RD 1000 N,MONTICELLO,61856
554,WILL TV TOWER,STRINGTOWN LANE,MONTICELLO,61856
555,"401 E. JOHN, CHAMPAIGN",401  E JOHN,CHAMPAIGN,
556,FIRE SUB STATION,1105 W. GREGORY DR.,URBANA,61801
557,F-29 PARKING DECK,"1001 S. DORNER DR.,",URBANA,61801
558,NEWTON HOUSE,NULL,CHAMPAIGN,61820
559,111 E. GREEN STREET,111 E. GREEN STREET,CHAMPAIGN,61820
560,EICHELBERGER FIELD AND PRESS BOX,1201 W. FLORIDA AVE.,URBANA,61801
561,NORTH ANNEX,408  S. THIRD,CHAMPAIGN,
562,4110 S. FIRST STREET,4110  S. FIRST STREET,CHAMPAIGN,
563,SIEBEL CENTER FOR COMPUTER SCIENCE,201 N. GOODWIN AVENUE,URBANA,61801
564,NAT CENTER FOR SUPERCOMP APPL,1205 W. CLARK ST.,URBANA,61801
565,CARLE FORUM,611 W. PARK,URBANA,61801
566,709 S. WRIGHT,709  S WRIGHT STREET,CHAMPAIGN,
567,1008 W. UNIVERSITY,1008  W UNIVERSITY AVENUE,URBANA,
568,1206 W. NEVADA,1206 W. NEVADA,URBANA,61801
569,2321 SOUTH FIRST STREET,2321  S. FIRST STREET,CHAMPAIGN,
570,2323/2325 SOUTH FIRST STREET,2323  S. FIRST STREET,CHAMPAIGN,
572,100 TRADE CENTER,100 TRADE CENTER DRIVE,CHAMPAIGN,61820
573,106 E. DANIEL,106 E DANIEL,CHAMPAIGN,61856
 600-699,,,,
600,TEST CELL - RANTOUL,RANTOUL AVIATION CENTER,RANTOUL,61866
613,"1808 WOODFIELD DRIVE, SAVOY",1808 WOODFIELD DRIVE,SAVOY,61874
650,AIRPORT NORTH FUEL FARM,40 AIRPORT ROAD,SAVOY,61874
651,HUMAN FACTORS DIVISION,4 AIRPORT ROAD,SAVOY,61874
652,CONTROL TOWER,1 AIRPORT ROAD,SAVOY,61874
653,JET TEST CELL,22 AIRPORT ROAD,SAVOY,61874
655,RECIPROCATING ENGINE TEST CELL,30 AIRPORT ROAD,SAVOY,61874
656,SNOW REMOVAL EQUIPMENT BUILDING,WILLARD AIRPORT,SAVOY,61874
657,AIRPORT OPERATIONS GARAGE,25 AIRPORT ROAD,SAVOY,61874
658,HANGAR #4,24 AIRPORT ROAD,SAVOY,61874
659,LINEMAN'S BUILDING,20 AIRPORT ROAD,SAVOY,61874
660,SNACK BAR & LOUNGE,20 AIRPORT ROAD,SAVOY,61874
661,HANGAR #1,20 AIRPORT ROAD,SAVOY,61874
662,MISCELLANEOUS ,1 AIRPORT ROAD,SAVOY,61874
663,HANGAR #2,5 AIRPORT ROAD,SAVOY,61874
664,NAVY BUILDING,10 AIRPORT ROAD,SAVOY,61874
665,QUONSET #1,12 AIRPORT ROAD,SAVOY,61874
666,QUONSET #2,14 AIRPORT ROAD,SAVOY,61874
667,QUONSET #3,2 AIRPORT ROAD,SAVOY,61874
668,QUONSET #4,4 AIRPORT ROAD,SAVOY,61874
669,QUONSET #5,6 AIRPORT ROAD,SAVOY,61874
670,QUONSET #6,18 AIRPORT ROAD,SAVOY,61874
671,QUONSET #7,16 AIRPORT ROAD,SAVOY,61874
672,QUONSET #8,8 AIRPORT ROAD,SAVOY,61874
674,FLIGHTSTAR ADMINISTRATION BUILDING,7 AIRPORT ROAD,SAVOY,61874
675,COMMERCIAL AIRPORT TERMINAL BLDG,11 AIRPORT ROAD,SAVOY,61874
676,INST OF AVIATION ADMIN BUILDING,1 AIRPORT ROAD,SAVOY,61874
677,AIRPORT RESCUE AND FIREFIGHTING,3 AIRPORT ROAD,SAVOY,61874
678,10 UNIT T-HANGAR (CENTRAL),WILLARD AIRPORT,SAVOY,61874
679,5 UNIT T-HANGAR (SOUTH),WILLARD AIRPORT,SAVOY,61874
680,2 UNIT T-HANGAR,WILLARD AIRPORT,SAVOY,61874
681,HANGAR #3,5 AIRPORT ROAD,SAVOY,61874
682,HANGAR #5,5 AIRPORT ROAD,SAVOY,61874
683,SAND & SNOW EQUIPMENT STORAGE BUILDING,5 AIRPORT ROAD,SAVOY,61874
684,AIRPORT CARETAKER'S HOUSE,WILLARD AIRPORT,SAVOY,61874
685,HANGAR #7,26 AIRPORT ROAD,SAVOY,61874
686,MACHINE SHOP,11 AIRPORT ROAD,SAVOY,61874
687,AIRPORT SOUTH FUEL FARM,,SAVOY,
688,AIRPORT RADAR UNIT,WILLARD AIRPORT,SAVOY,61874
689,AIRPORT REMOTE TRANSMITTER,WILLARD AIRPORT,SAVOY,61874
690,AIRPORT TRANSMITTER,WILLARD AIRPORT,SAVOY,61874
691,AIRPORT GENERATOR,1 AIRPORT ROAD,SAVOY,61874
692,AIRPORT GLIDE SCOPE,WILLARD AIRPORT,SAVOY,61874
693,AIRPORT MIDDLE MARKER,WILLARD AIRPORT,SAVOY,61874
694,AIRPORT MALSR,WILLARD AIRPORT,SAVOY,61874
695,AIRPORT VOR,WILLARD AIRPORT,SAVOY,61874
696,AIRPORT MAIN VAULT,16 AIRPORT ROAD,SAVOY,61874
697,AIRPORT FIELD VAULT,1 AIRPORT ROAD,SAVOY,61874
698,PARKING BOOTHS,13 AIRPORT ROAD,SAVOY,61874
 700-799,,,,
703,200 BLISS DR.,200   BLISS DR.,URBANA,
704,201 BLISS DR.,201   BLISS DR.,URBANA,
705,202 BLISS DR.,202   BLISS DR.,URBANA,
706,203 BLISS DR.,203   BLISS DR.,URBANA,
707,204 BLISS DR.,204   BLISS DR.,URBANA,
708,205 BLISS DR.,205   BLISS DR.,URBANA,
709,206 BLISS DR.,206   BLISS DR.,URBANA,
710,207 BLISS DR.,207   BLISS DR.,URBANA,
711,208 BLISS DR.,208   BLISS DR.,URBANA,
712,209 BLISS DR.,209   BLISS DR.,URBANA,
713,210 BLISS DR.,210   BLISS DR.,URBANA,
714,211 BLISS DR.,211   BLISS DR.,URBANA,
715,300 BLISS DR.,300   BLISS DR.,URBANA,
716,301 BLISS DR.,301   BLISS DR.,URBANA,
717,302 BLISS DR.,302   BLISS DR.,URBANA,
718,303 BLISS DR.,303   BLISS DR.,URBANA,
719,304 BLISS DR.,304   BLISS DR.,URBANA,
720,305 BLISS DR.,305   BLISS DR.,URBANA,
721,306 BLISS DR.,306   BLISS DR.,URBANA,
722,307 BLISS DR.,307   BLISS DR.,URBANA,
729,1800 CARLE DR.,1800   CARLE DR.,URBANA,
730,"1801 CARLE DRIVE, URBANA",1801 CARLE DRIVE,URBANA,61801
731,1802 CARLE DR.,1802   CARLE DR.,URBANA,
732,1803 CARLE DR.,1803   CARLE DR.,URBANA,
733,1804 CARLE DR.,1804   CARLE DR.,URBANA,
734,"1805 CARLE DRIVE, URBANA",1805 CARLE DRIVE,URBANA,61801
735,1806 CARLE DR.,1806   CARLE DR.,URBANA,
736,"1807 CARLE DRIVE, URBANA",1807 CARLE DRIVE,URBANA,61801
737,"1809 CARLE DRIVE, URBANA",1809 CARLE DRIVE,URBANA,61801
738,"1811 CARLE DRIVE, URBANA",1811 CARLE DRIVE,URBANA,61801
739,ORCHARD PLACE APARTMENTS,1801-02 ORCHARD,URBANA,61801
740,ORCHARD PLACE APARTMENTS,1803-04 ORCHARD,URBANA,61801
741,ORCHARD PLACE APARTMENTS,1805-06 ORCHARD,URBANA,61801
742,ORCHARD PLACE APARTMENTS,1807-08 ORCHARD,URBANA,61801
743,ORCHARD PLACE APARTMENTS,1809-10-11-12 ORCHARD,URBANA,61801
744,ORCHARD PLACE APARTMENTS,1813-14 ORCHARD,URBANA,61801
745,ORCHARD PLACE APARTMENTS,1815-16-17-18 ORCHARD,URBANA,61801
746,ORCHARD PLACE APARTMENTS,1819-20 ORCHARD,URBANA,
747,ORCHARD PLACE APARTMENTS,1821-22-23-24 ORCHARD,URBANA,61801
748,ORCHARD PLACE APARTMENTS,1825-26 ORCHARD,URBANA,61801
749,ORCHARD PLACE APARTMENTS,1827-28 ORCHARD,URBANA,61801
750,ORCHARD PLACE APARTMENTS,1829-30 ORCHARD,URBANA,61801
751,ORCHARD PLACE APARTMENTS,1831-32 ORCHARD,URBANA,61801
752,ORCHARD PLACE APARTMENTS,1833-34 ORCHARD,URBANA,61801
753,ORCHARD PLACE APARTMENTS,1835-36 ORCHARD,URBANA,61801
754,ORCHARD PLACE APARTMENTS,1837-38 ORCHARD,URBANA,61801
755,FAMILY HOUSING OFFICE,1841 ORCHARD,URBANA,61801
756,ORCHARD DOWNS APARTMENTS,1902-04-06 ORCHARD,URBANA,61801
757,ORCHARD DOWNS APARTMENTS,1910-12-14-16 ORCHARD,URBANA,61801
758,ORCHARD DOWNS APARTMENTS,1920-22-24 ORCHARD,URBANA,61801
759,ORCHARD DOWNS APARTMENTS,1930-32-34 ORCHARD,URBANA,61801
760,ORCHARD DOWNS APARTMENTS,1940-42-44 ORCHARD,URBANA,61801
761,ORCHARD DOWNS APARTMENTS,1950-52-54-56 ORCHARD,URBANA,61801
762,ORCHARD DOWNS APARTMENTS,1960-62 ORCHARD,URBANA,61801
763,ORCHARD DOWNS APARTMENTS,1961-63-65 ORCHARD,URBANA,61801
764,ORCHARD DOWNS APARTMENTS,1970-72-76 ORCHARD,URBANA,61801
765,ORCHARD DOWNS APARTMENTS,1971-73-75-77 ORCHARD,URBANA,61801
766,ORCHARD DOWNS APARTMENTS,2001-03-05 ORCHARD,URBANA,61801
767,ORCHARD DOWNS APARTMENTS,2002-04-06 ORCHARD,URBANA,61801
768,ORCHARD DOWNS APARTMENTS,2008-09 HAZELWOOD,URBANA,61801
769,ORCHARD DOWNS APARTMENTS,2010-12-14-16 ORCHARD,URBANA,61801
770,ORCHARD DOWNS APARTMENTS,2011-13-15-17 ORCHARD,URBANA,61801
771,ORCHARD DOWNS APARTMENTS,2020-22-24 ORCHARD,URBANA,61801
772,ORCHARD DOWNS APARTMENTS,2021-23-25 ORCHARD,URBANA,61801
773,ORCHARD DOWNS APARTMENTS,2027-28-29 HAZELWOOD,URBANA,61801
774,ORCHARD DOWNS APARTMENTS,2030-32-34 ORCHARD,URBANA,61801
775,ORCHARD DOWNS APARTMENTS,2031-33-35-37 ORCHARD,URBANA,61801
776,ORCHARD DOWNS APARTMENTS,2038-39 HAZELWOOD,URBANA,61801
777,ORCHARD DOWNS APARTMENTS,2040-42-44 ORCHARD,URBANA,61801
778,ORCHARD DOWNS APARTMENTS,2047-48-49 HAZELWOOD,URBANA,61801
779,ORCHARD DOWNS APARTMENTS,2051-53 ORCHARD,URBANA,61801
780,ORCHARD DOWNS APARTMENTS,2055-57-59 ORCHARD,URBANA,61801
781,ORCHARD DOWNS APARTMENTS,2060-62-64 ORCHARD,URBANA,61801
782,ORCHARD DOWNS APARTMENTS,2061-63-65 ORCHARD,URBANA,61801
783,ORCHARD DOWNS APARTMENTS,2067-68-69 HAZELWOOD,URBANA,61801
784,ORCHARD DOWNS APARTMENTS,2070-72-74 ORCHARD,URBANA,61801
785,ORCHARD DOWNS APARTMENTS,2071-73-75 ORCHARD,URBANA,61801
786,ORCHARD DOWNS APARTMENTS,2077-78-79 HAZELWOOD,URBANA,61801
787,ORCHARD DOWNS APARTMENTS,2080-82-84 ORCHARD,URBANA,61801
788,ORCHARD DOWNS APARTMENTS,2081-83-85-87 ORCHARD,URBANA,61801
789,ORCHARD SOUTH APARTMENTS,2101 HAZELWOOD,URBANA,61801
790,ORCHARD SOUTH APARTMENTS,2102 S. ORCHARD,URBANA,61801
791,ORCHARD SOUTH APARTMENTS,2103 HAZELWOOD,URBANA,61801
792,ORCHARD SOUTH APARTMENTS,2104 S. ORCHARD,URBANA,61801
793,ORCHARD SOUTH APARTMENTS,2105 HAZELWOOD,URBANA,61801
794,ORCHARD SOUTH APARTMENTS,2106 S. ORCHARD,URBANA,61801
795,ORCHARD SOUTH APARTMENTS,2107 HAZELWOOD,URBANA,61801
796,ORCHARD SOUTH APARTMENTS,2108 S. ORCHARD,URBANA,61801
797,ORCHARD SOUTH APARTMENTS,2109 HAZELWOOD,URBANA,61801
798,ORCHARD SOUTH APARTMENTS,2110 S. ORCHARD,URBANA,61801
799,ORCHARD SOUTH APARTMENTS,2111 HAZELWOOD,URBANA,61801
 800-899,,,,
801,AN HUSB HEDDEN HOUSE,7  E. ST. MARY'S RD.,CHAMPAIGN,
802,ANIMAL HUSBANDRY HEDDEN BARN,7 W. ST. MARY'S RD.,CHAMPAIGN,61820
803,PIG NURSERY - NORTH,S. FIRST ST.,CHAMPAIGN,61820
804,ANIMAL HUSBANDRY SWN BRN - HEDDEN,1901 S. FIRST ST.,CHAMPAIGN,61820
805,AN HUSB EXPR SWINE FEED SHED,S. FIRST,CHAMPAIGN,
806,FARROWING BUILDING - SWINE RES CTR,3502 S. FIRST ST.,CHAMPAIGN,61820
807,SOW FEEDING BUILDING - SWINE RES CTR,3502 S. FIRST ST.,CHAMPAIGN,61820
808,FEED & VITAMIN MIXING BARN,S. FIRST,CHAMPAIGN,
809,ANIMAL HUSBANDRY SHEEP MET BLDG,E. ST. MARY'S RD.,CHAMPAIGN,61820
810,INDIVIDUAL FEEDING BARN,E. ST. MARY'S RD.,CHAMPAIGN,61820
811,ANIMAL HUSBANDRY SHEEP BARNS,201 E. ST. MARY'S RD.,CHAMPAIGN,61820
812,FEED MIXING AND SHEEP BARN,E. ST. MARY'S RD.,CHAMPAIGN,61820
813,PIG NURSERY - SOUTH,S. FIRST,CHAMPAIGN,
814,SWINE BARN,S. FIRST,CHAMPAIGN,
815,FEED STORAGE PLANT,E. ST. MARY'S RD.,CHAMPAIGN,61820
816,CONCRETE BLOCK FEED STORAGE,E. ST. MARY'S RD.,CHAMPAIGN,61820
817,SWINE RESEARCH CENTER STORAGE,S. FIRST ST.,CHAMPAIGN,61820
818,HOG AND CATTLE WEIGHING SHED,E. ST. MARY'S RD.,CHAMPAIGN,61820
819,CALF BARN,E. ST. MARY'S RD.,CHAMPAIGN,61820
820,ANIMAL HUSBANDRY CATTLE FEEDING PLT,E. ST. MARY'S RD.,CHAMPAIGN,61820
821,SCALE HOUSE,E. ST. MARY'S RD.,CHAMPAIGN,61820
822,GARAGE,E. ST. MARY'S RD.,CHAMPAIGN,61820
823,FEED MIXING SHED,E. ST. MARY'S RD.,CHAMPAIGN,61820
824,AGRONOMY SOUTH FARMS LAB,2102 S. WRIGHT,URBANA,61801
825,NURSERY BUILDING-SWINE RES CTR,3502 S. FIRST ST.,CHAMPAIGN,61820
826,CONFINEMENT BEEF UNIT,E. ST. MARY'S RD.,CHAMPAIGN,61820
827,SWINE FINISH. FAC.-SWINE RES,3502  S. FIRST,CHAMPAIGN,NULL
828,ANIMAL SCI SHOP & STOR-HORSE FARM,1810 S. FOURTH ST.,CHAMPAIGN,61820
829,POLE FRAME HORSE BARN,E. ST. MARY'S RD.,CHAMPAIGN,61820
830,SHEEP SHELTER,E. ST. MARY'S RD.,CHAMPAIGN,61820
831,ANIMAL SCIENCE K40 FACILITY,501 E. ST. MARY'S RD.,CHAMPAIGN,61820
832,ANIMAL SCI RUMINANT METABOLISM UNIT,E. ST. MARY'S RD.,CHAMPAIGN,61820
833,ANIMAL SCI FARM EQUIPMENT STOR UNIT,601 E. ST. MARY'S RD.,CHAMPAIGN,61820
834,ANIMAL SCI ISOLATION UNIT,E. ST. MARY'S RD.,CHAMPAIGN,61820
835,SWINE PROGENY TEST FACILITY,1811 S. FIRST ST.,CHAMPAIGN,61820
836,EQUINE RESEARCH BARN,517 E. ST. MARY'S RD.,CHAMPAIGN,61820
837,PESTICIDE STORAGE,W. HAZELWOOD DR.,URBANA,61801
838,MACHINERY STORAGE BLDG-AGRON FARM,W. HAZELWOOD DR.,URBANA,61801
839,MACHINERY & EQUIP STOR SHED - AGRON,W. HAZELWOOD DR.,URBANA,61801
840,AGRONOMY DEPARTMENT BARN,W. HAZELWOOD DR.,URBANA,61801
841,IMPLEMENT SHED WEST OF SEEDHOUSE,W. HAZELWOOD DR.,URBANA,61801
842,AGRONOMY SEED HOUSE,2102 S. WRIGHT ST.,CHAMPAIGN,61820
844,AGRONOMY DRYING SHED,W. HAZELWOOD DR.,URBANA,61801
845,SHEET METAL BARN,W. HAZELWOOD DR.,URBANA,61801
846,SHEET METAL BARN - USDA,W. HAZELWOOD DR.,URBANA,61801
847,SHEET METAL BARN - SSSS - AGRONOMY,W. HAZELWOOD DR.,URBANA,61801
848,SHEET METAL BARN - WEED LAB - USDA,W. HAZELWOOD DR.,URBANA,61801
849,SHEET METAL BARN - AGRONOMY,W. HAZELWOOD DR.,URBANA,61801
850,SOIL PHYSICS BUILDING - USDA,1310 W. HAZELWOOD DRL.,URBANA,61801
851,RAIN DROP TOWER BUILDING - AGRONOMY,W. HAZELWOOD DR.,URBANA,61801
852,GRAIN DRYING BUILDING - AGRONOMY,W. HAZELWOOD DR.,URBANA,61801
853,USDA GROWTH CHAMBER BUILDING,W. HAZELWOOD DR.,URBANA,61801
854,MACHINE STORAGE BUILDING,W. HAZELWOOD DR.,URBANA,61801
855,DAIRY EXPERIMENTAL ROUND BARNS,1201 W. ST. MARY'S RD.,URBANA,61801
856,DAIRY EXPERIMENTAL ROUND BARNS,1201 W. ST. MARY'S RD.,URBANA,61801
857,DAIRY EXPERIMENTAL ROUND BARNS,1201 W. ST. MARY'S RD.,URBANA,61801
858,"1101 WEST ST MARY'S ROAD, U",1101 W. ST. MARY'S RD.,URBANA,61801
859,CROP SCIENCE RESEARCH & EDUC. CTR.,2008 S. WRIGHT ST.,URBANA,61801
860,NEW CALF BARN - ROUND BARNS,1201 W. GOODWIN AVE.,URBANA,61801
861,BRICK GARAGE LAB - ROUND BARNS,"1911 S. GOODWIN, AVE.",URBANA,61801
862,OPEN FRONT CATTLE BARN,"1811 S. FOURTH ST., EXT.",CHAMPAIGN,61820
863,CALF BARN,1201 W. ST. MARY'S RD.,URBANA,61801
864,RABBIT SHELTER,W. ST. MARY'S RD.,URBANA,61801
865,PLANT PEST DIAGNOSTIC CLINIC,1401 W. ST. MARY'S RD.,URBANA,61801
866,SWINE FINISHING - BLDG A,3502 S. FIRST ST.,CHAMPAIGN,61820
867,SWINE FINISHING - BLDG B,3502 S. FIRST ST.,CHAMPAIGN,61820
868,CAGE LAYER HOUSE,W. ST. MARY'S RD.,URBANA,61801
869,BROODING AND REARING HOUSE,W. ST. MARY'S RD.,URBANA,61801
870,ANIMAL HUSBANDRY POULTRY RES & GAR,1402 W. ST. MARY'S RD.,URBANA,61801
871,ANIMAL HUSBANDRY POULTY BREEDING PLT,W. ST. MARY'S RD.,URBANA,61801
872,DOG METABOLISM UNIT,W. ST. MARY'S RD.,URBANA,61801
873,SHEET METAL POULTRY SHED,W. ST. MARY'S RD.,URBANA,61801
874,ANIMAL HUSBANDRY POULTRY PLANT,W. ST. MARY'S RD.,URBANA,61801
875,ANIMAL HUSBANDRY POULTRY BARN,1301 W. GREGORY DRIVE,URBANA,61801
876,ALUMINUM POULTRY SHED,W. ST. MARY'S RD.,URBANA,61801
877,POULTRY RESEARCH LAYING FACILITY,W. ST. MARY'S RD.,URBANA,61801
878,GARAGE - HORTICULTURE FIELD LAB,S. ORCHARD,URBANA,61801
879,FOOD STOR SHED-HORT FIELD LAB,S. ORCHARD,URBANA,61801
880,CANINE UNIT,W. ST. MARY'S RD.,URBANA,61801
881,GROUNDS STORAGE BARN,2306 S. LINCOLN,URBANA,61801
882,STORAGE BUILDING - PELL FARM,WINDSOR RD.,URBANA,61801
884,POLLINATARIUM,606 W. WINDSOR RD.,URBANA,61801
885,HORTICULTURE FIELD RESEARCH LAB,S. LINCOLN,URBANA,61801
886,WOODY ORNAMENTALS GREENHOUSE,S. LINCOLN,URBANA,61801
887,TURF GRASS RESEARCH BLDG,LINCOLN AVE.,URBANA,
888,ANIMAL RESEARCH BARN-PHYSL RES LAB,"301 E. HAZELWOOD, DR.",CHAMPAIGN,61820
889,ANIMAL GENETICS POLE BARN STORAGE,"301 E. HAZELWOOD, DR.",CHAMPAIGN,61820
890,AMMUNITION STORAGE - 3 BLDGS,WINDSOR RD.,CHAMPAIGN,61820
891,PHYSIOLOGY RES LAB-GARAGE WEST,301 E. HAZELWOOD DR.,CHAMPAIGN,61820
892,PHYSIOLOGY RES LAB-GARAGE EAST,301 E. HAZELWOOD DR.,CHAMPAIGN,61820
893,ANIMAL SCI SUPR RESIDENCE & GARAGE,E. HAZELWOOD DR.,CHAMPAIGN,61820
894,MOORMAN RES FARM-SOUTH BARN,2201 S. FOURTH ST. EXT.,CHAMPAIGN,61820
895,MOORMAN RES FARM-GATE HOUSE,2201 S. FOURTH ST. EXT.,CHAMPAIGN,61820
896,MOORMAN RES FARM-NC-23,2201 S. FOURTH ST. EXT.,CHAMPAIGN,61820
897,MOORMAN RES FARM-BOAR BARN,2201 S. FOURTH ST. EXT.,CHAMPAIGN,61820
898,MOORMAN RES FARM-SOW BARN,2201 S. FOURTH ST. EXT.,CHAMPAIGN,61820
899,MOORMAN RES FARM-PHYSIOLOGY BARN 2,301 E. HAZELWOOD DR.,CHAMPAIGN,61820
 900-999,,,,
900,MOORMAN RES FARM-PHYSIOLOGY BARN 1,301 E. HAZELWOOD DR.,CHAMPAIGN,61820
901,MOORMAN RES FARM-1A,2201 S. FOURTH ST. EXT.,CHAMPAIGN,61820
902,MOORMAN RES FARM-2A,2201 S. FOURTH ST. EXT.,CHAMPAIGN,61820
903,MOORMAN RES FARM-3A AND 4A,2201 S. FOURTH ST. EXT.,CHAMPAIGN,61820
904,MOORMAN RES FARM-5A,2201 S. FOURTH ST. EXT.,CHAMPAIGN,61820
905,MOORMAN RES FARM-FARROWING HOUSE,2201 S. FOURTH ST. EXT.,CHAMPAIGN,61820
906,MOORMAN RES FARM-1B,2201 S. FOURTH ST. EXT.,CHAMPAIGN,61820
907,MOORMAN RES FARM-2B,2201 S. FOURTH ST. EXT.,CHAMPAIGN,61820
908,MOORMAN RES FARM-3B,2201 S. FOURTH ST. EXT.,CHAMPAIGN,61820
909,MOORMAN RES FARM-4B,2201 S. FOURTH ST. EXT.,CHAMPAIGN,61820
910,MOORMAN RES FARM-5B,2201 S. FOURTH ST. EXT.,CHAMPAIGN,61820
911,MOORMAN RES FARM-OXIDATN DITCH BLDG,2201 S. FOURTH ST. EXT.,CHAMPAIGN,61820
912,IMPORTED SWINE RESEARCH LABORATORY,2201 S. FOURTH ST. EXT.,CHAMPAIGN,61820
913,MOORMAN RES FARM-1C,2201 S. FOURTH ST. EXT.,CHAMPAIGN,61820
914,MOORMAN RES FARM-2C AND 3C,2201 S. FOURTH ST. EXT.,CHAMPAIGN,61820
915,MOORMAN RES FARM-4C,2201 S. FOURTH ST. EXT.,CHAMPAIGN,61820
916,MOORMAN RES FARM-1D,2201 S. FOURTH ST. EXT.,CHAMPAIGN,61820
917,MOORMAN RES FARM-2D,2201 S. FOURTH ST. EXT.,CHAMPAIGN,61820
918,MOORMAN RES FARM-3D,2201 S. FOURTH ST. EXT.,CHAMPAIGN,61820
919,MACHINE SHED-LINCOLN AVE DAIRY,2301 S. LINCOLN,URBANA,61801
920,NEW CALF BARN-LINCOLN AVE DAIRY,2301 S. LINCOLN,URBANA,61801
921,NEW BULL BARN-LINCOLN AVE DAIRY,2301 S. LINCOLN,URBANA,61801
922,MATERNITY BARN-LINCOLN AVE DAIRY,2301 S. LINCOLN,URBANA,61801
923,GOAT BARN-LINCOLN AVE DAIRY,2301 S. LINCOLN,URBANA,61801
924,DAIRY HERDSMAN'S COTTAGE-L AVE DAIRY,2301 S. LINCOLN,URBANA,61801
925,SOUTH BARN AND CALF HOUSE-LAD,2301 S. LINCOLN,URBANA,61801
926,NORTH BARN AND MILK HOUSE-LAD,2301 S. LINCOLN,URBANA,61801
927,LOAFING BARN-DAIRY CAT MECH CTR-LAD,2301 S. LINCOLN,URBANA,61801
928,SHOP AND STORAGE BUILDING-LAD,2301 S. LINCOLN,URBANA,61801
929,'T' LOAFING BARN-LINCOLN AVE DAIRY,2301 S. LINCOLN,URBANA,61801
930,STORAGE SHED-SOUTH WRIGHT EXT-USDA,S. WRIGHT ST. EXT.,CHAMPAIGN,61820
931,AGRONOMY FIELD LABORATORY-USDA,"S. WRIGHT ST. EXT.,",CHAMPAIGN,61820
932,DAIRY HERDSMAN'S OFFICE-LAD,2301 S. LINCOLN,URBANA,61801
934,MILKING PARLOR-LINCOLN AVE DAIRY,2301 S. LINCOLN,URBANA,61801
935,FOOD SCIENCE DRY PROCESSING LAB,E. HAZELWOOD DR.,CHAMPAIGN,61820
936,HORTICULTURE BARN,LINCOLN EXTENDED,URBANA,
937,FEED MIXING BARN-LINCOLN AVE DAIRY,"2301 S. LINCOLN,",URBANA,61801
938,MILKING PARLOR-LINCOLN AVE DAIRY,2301 S. LINCOLN,URBANA,61801
939,DAIRY FREE STALL BARN-LAD,"2301 S. LINCOLN,",URBANA,61801
940,GARAGE,S. FIRST ST.,CHAMPAIGN,61820
941,TECHNOLOGY COMMERICIALIZATION BLDG,"2004 S. WRIGHT, EXT.",URBANA,61801
942,GARAGE-SHEEP FARM,E. ST. MARY'S ROAD,CHAMPAIGN,61820
943,INTENSIVE CARE NURSERY,E. HAZELWOOD DR.,CHAMPAIGN,61820
944,SCALE HOUSE-LINCOLN AVE DAIRY,2301 S. LINCOLN,URBANA,61801
945,DAIRY BARN-SOUTH RACE STREET,S. RACE,URBANA,61801
946,CORN CRIB,S. RACE,URBANA,
947,IMPLEMENT SHED,S. RACE,URBANA,61801
948,FOREST SCIENCE GARAGE - S RACE ST,S. RACE,URBANA,61801
949,IMPLEMENT SHED-AG ENG-S RACE ST,3603 SOUTH RACE,URBANA,61801
950,AGRICULTURAL ENG STORAGE-S RACE ST,3603 SOUTH RACE,URBANA,61801
951,IMPLEMENT SHED-FOREST SCI-S RACE ST,S. RACE,URBANA,61801
952,MCCULLOUGH FARM HS-VET MED,S. RACE,URBANA,
953,DOWNES ANNEX,S. RACE,URBANA,61801
954,GARAGE-VET MED,S. RACE,URBANA,
955,SOUTHWEST BARN-VET MED-S RACE ST,S. RACE,URBANA,61801
956,NORTHWEST BARN-VET MED-S RACE ST,"3305 S. RACE,",URBANA,61801
957,SUPERVISOR'S RESIDENCE-SWINE RES CTR,3502 S. FIRST,CHAMPAIGN,61820
959,VETERINARY RES FARM-FARROWING HOUSE,"S. RACE, URBANA",URBANA,61801
960,GEOPHYSICAL OBSERVATORY-HSE GREIN FM,1002 W. CURTIS RD.,URBANA,61801
961,VETERINARY RES FARM-HOG BARN,S. RACE,URBANA,61801
962,VETERINARY RES FARM-POULTRY BARN,S. RACE,URBANA,61801
963,VETERINARY RES FARM-CLINICAL RES BAR,S. RACE,URBANA,61801
964,VETERINARY RES FARM-ISOLATION BLDG,S. RACE,URBANA,61801
965,VETERINARY RES FARM-ISOLATION BLDG,S. RACE,URBANA,61801
966,VETERINARY RES FARM-LOCKER ROOM BLDG,S. RACE,URBANA,61801
967,VETERINARY RES FARM-RADIOACTIVE R B,S. RACE,URBANA,61801
968,CORN CRIB,S. RACE,URBANA,61801
969,VETERINARY RES FARM-PATHOLOGICAL INC,S. RACE,URBANA,61801
970,AGRICULTURE ENGINEERING RESEARCH #1,S. LINCOLN EXT.,URBANA,61801
971,STRUCTURES PHYSIOLOGY LABORATORY,3305 S. RACE,URBANA,61801
972,FREE STALL BARN-LINCOLN AVE DAIRY,2301 S. LINCOLN,URBANA,61801
973,VETERINARY RES FARM-HORSE SHELTER,S. RACE,URBANA,61801
974,USDA SOYBEAN LABORATORY,3603 SOUTH RACE,URBANA,61801
975,SERVICE BUILDING - PELL FARM,WINDSOR RD.,URBANA,61801
976,GARAGE - PELL FARM,WINDSOR RD.,URBANA,61801
977,FRUIT BUILDING - PELL FARM,WINDSOR RD.,URBANA,61801
978,APIARY BUILDING - PELL FARM,WINDSOR RD.,URBANA,61801
979,MACHINE STORAGE BUILDING - PELL FARM,WINDSOR RD.,URBANA,61801
980,AGRICULTURE ENGINEERING RESEARCH #2,LINCOLN EXTENDED,URBANA,61801
981,VEGETABLE RESEARCH FARM - GARAGE,LINCOLN EXTENDED,URBANA,61801
982,APICULTURE CAGE HDHS-PELL FR,WINDSOR RD.,URBANA,
983,MACHINERY STORAGE BUILDING,3603 SOUTH RACE,URBANA,61801
984,MACHINERY STORAGE BUILDING #2,3603 SOUTH RACE,URBANA,61801
985,GREIN FARM - BARN,W. CURTIS ROAD,URBANA,61801
986,GREIN FARM-CORN CRIB,E. CURTIS RD.,URBANA,
987,GREIN FARM - STORAGE SHED 1,W. CURTIS ROAD,URBANA,61801
988,GREIN FARM - STORAGE SHED 2,W. CURTIS ROAD,URBANA,61801
989,GREIN FARM - E E STORAGE SHED,W. CURTIS ROAD,URBANA,61801
990,SOYBEAN DAMAGE LAB - AN ENG FARM,3603 SOUTH RACE,URBANA,61801
991,SOYBEAN RESEARCH - AGRONOMY FARM,1308 W. HAZELWOOD DR.,URBANA,61801
992,POMOLOGY STORAGE BLDG - PELL FARM,WINDSOR RD.,URBANA,61801
993,PHARMACOLOGY & TOXICOLOGY,S. RACE,URBANA,
994,POULTRY ISOLATION UNIT - VET RES FAR,"S. RACE, URBANA",URBANA,61801
995,CONFINEMENT BEEF COW BARN,E. ST. MARY'S RD.,CHAMPAIGN,61820
996,DRY COW FREE - STALL BARN,2301 S. LINCOLN,URBANA,61801
997,HEIFER SHED - LINCOLN AVENUE DAIRY,2301 S. LINCOLN,URBANA,61801
998,SOLIDS SEPARATION UNIT - LAD,2301 S. LINCOLN,URBANA,61801
999,FREE STALL POLE BUILDING - LAD,2301 S. LINCOLN,URBANA,61801
 1000-1099,,,,
1000,SUPERVISOR'S RESIDENCE - BEEF,501 E. ST. MARY'S RD.,CHAMPAIGN,61820
1001,CRUSE FARM PUMP STATION,2923 S. FIRST ST.,CHAMPAIGN,61820
1002,NEMATOLOGY STORAGE BUILDING,WINDSOR ROAD,URBANA,61801
1003,ACID RAIN FIELD BUILDING,S. WRIGHT EXT.,CHAMPAIGN,61820
1004,CRUSE FARM STORAGE BUILDING,S. FIRST ST.,CHAMPAIGN,61820
1005,VET RES FARM-DOG HOUSING UNIT,S. RACE ST.,URBANA,61801
1006,VET RES FARM-SWINE FINISHING BLDG,3305 S. RACE ST.,URBANA,61801
1007,VET RES FARM-SWINE FARROWING & NURSY,3305 S. RACE ST.,URBANA,61801
1008,VET RES FARM-DOG SMALL RUMINANT BLDG,3305 S. RACE ST.,URBANA,61801
1009,VET RES FARM-SWINE GESTATION UNIT,3305 S. RACE ST.,URBANA,61801
1010,VET RES FARM-SERVICE BUILDING,3305 S. RACE ST.,URBANA,61801
1011,VET RES FARM-CATTLE CONFINEMENT FAC,S. RACE ST.,URBANA,61801
1012,VET RES FARM-HAY BARN,S. RACE ST.,URBANA,61801
1013,BEEF COW FACILITY,2612 S. FIRST ST.,CHAMPAIGN,61820
1014,BEEF COW FACILITY-CATTLE WKG SHLTR,"S. FOURTH ST., EXT.",URBANA,61801
1015,BEEF COW FACILITY-HAY STORAGE,"S. FOURTH ST., EXT.",URBANA,61801
1016,VEGETABLE CROPS SHOP & STOR BLDG,"2921 S. FIRST ST.,",CHAMPAIGN,61820
1017,AGRICULTURAL/PPFM WAREHOUSE STOR A,S. WRIGHT EXT.,CHAMPAIGN,61820
1018,ENGINEERING WAREHOUSE STOR B,"S. WRIGHT EXT.,",CHAMPAIGN,61820
1019,ENGINEERING WAREHOUSE STOR C,1921 S. WRIGHT EXT.,CHAMPAIGN,61820
1020,ELECTRICAL ENG STOR BLDG,2121 S. GIRIFFITH DR.,CHAMPAIGN,61820
1021,IMPLEMENT STORAGE BLDG-LAD,S. LINCOLN,URBANA,61801
1022,HAY STORAGE-DAIRY,S. LINCOLN,URBANA,
1023,FEED LOADING-LINCOLN AVE DAIRY,2201 S. LINCOLN,URBANA,61801
1024,LARGE HEIFER REARING-LAD,2201 S. LINCOLN,URBANA,61801
1025,SMALL HEIFER REARING-LAD,2201 S. LINCOLN,URBANA,61801
1026,WATER SURVEY WAREHOUSE,2107 S. GRIFFITH DR.,CHAMPAIGN,61820
1027,AERONOMY FIELD STATION,1600E AND .7 MILES N OF 1900N,URBANA,61801
1028,LASER - RADAR FACILITY,1600E AND .7 MILES N OF 1900N,URBANA,61801
1029,SWINE RES CTR-GENERATOR BLDG,S. FIRST ST.,CHAMPAIGN,61820
1030,SWINE RES CTR-HEADQUARTERS BLDG,3502 S. FIRST ST.,CHAMPAIGN,61820
1031,SWINE RES CTR-FEED CENTER,3502 S. FIRST ST.,CHAMPAIGN,61820
1032,SWINE RES CTR-ISOLATION BLDG,3502 S. FIRST ST.,CHAMPAIGN,61820
1033,SWINE RES CTR-NURSERY,3502 S. FIRST ST.,CHAMPAIGN,61820
1034,SWINE RES CTR-GROWING BLDG #1,3502 S. FIRST ST.,CHAMPAIGN,61820
1035,SWINE RES CTR-GROWING BLDG #2,3502 S. FIRST ST.,CHAMPAIGN,61820
1036,SWINE RES CTR-FINISHING BLDG #1,3502 S. FIRST ST.,CHAMPAIGN,61820
1037,METAL STORAGE BUILDING,192 S. WRIGHT ST. EXT.,CHAMPAIGN,61820
1038,ILLINI UNION WAREHOUSE,50 E. HAZELWOOD DR,CHAMPAIGN,61820
1039,CORE STORAGE BUILDING,1901 S. OAK ST.,CHAMPAIGN,61820
1040,O&M STORAGE BUILDING,W. HAZELWOOD DR.,URBANA,61801
1041,AGRICULTURE STORAGE BUILDING,W. HAZELWOOD DR.,URBANA,61801
1042,MODULAR INFECTIOUS DIS CONT BLDG #1,RACE STREET,URBANA,61801
1043,MODULAR INFECTIOUS DIS CONT BLDG #2,RACE STREET,URBANA,61801
1044,COMMODITIES STORAGE BUILDING,NULL,URBANA,61801
1045,WILDLIFE BUILDING,W. HAZELWOOD DR.,CHAMPAIGN,61820
1046,CRUSE FARM - LARGE BARN,NULL,URBANA,61801
1047,CRUSE FARM - MASONRY GARAGE,NULL,URBANA,61801
1048,PEST MANAGEMENT LABORATORY,1819 S. OAK ST.,CHAMPAIGN,61820
1049,ORCHARD SOUTH APARTMENTS (2112),2112 S. ORCHARD,URBANA,61801
1050,ORCHARD SOUTH APARTMENTS (2113),2113 HAZELWOOD,URBANA,61801
1051,ORCHARD SOUTH APARTMENTS (2114),2114 S. ORCHARD,URBANA,61801
1052,ORCHARD SOUTH APARTMENTS (2116),2116 S. ORCHARD,URBANA,61801
1053,ORCHARD SOUTH APARTMENTS (2118),2118 S. ORCHARD,URBANA,61801
1054,ORCHARD SOUTH APARTMENTS (2120),2120 S. ORCHARD,URBANA,61801
1055,ORCHARD SOUTH APARTMENTS (2201),2201 HAZELWOOD,URBANA,61801
1056,ORCHARD SOUTH APARTMENTS (2202),2102 S. ORCHARD,URBANA,61801
1057,ORCHARD SOUTH APARTMENTS (2203),2203 HAZELWOOD,URBANA,61801
1058,ORCHARD SOUTH APARTMENTS,2205 HAZELWOOD,URBANA,61801
1059,SHEEP FARM - RESIDENCE TRALR,201   ST. MARY'S ROAD - BLDG 1059,CHAMPAIGN,
1060,HORSE RECEIVING BARN,501 E. ST. MARY'S RD.,CHAMPAIGN,61820
1064,SWINE ISOLATION UNIT,NULL,URBANA,61801
1065,SWINE MOBLIE HOME,811 W. CURTIS ROAD,URBANA,61801
1066,MACHINE SHED - AN SCI,811  W. CURTIS ROAD,URBANA,
1067,MACHINE STORAGE CRIB,811  W. CURTIS ROAD,URBANA,
1068,PTI PAVILION,609 1/2 E. CURTIS ROAD,CHAMPAIGN,61820
1069,POLICE TRAINING INSTITUTE-TACTICAL,609 1/2 E. CURTIS ROAD,CHAMPAIGN,61820
1070,POLICE TRAINING TACTILE,609 1/2 E. CURTIS ROAD,CHAMPAIGN,61820
1071,EARLY CHILD DEVELOPMENT LAB,1005 W. NEVADA,URBANA,61801
1072,HAZELWOOD DRIVE UTILITIES CENTER,1910 S. OAK STREET,CHAMPAIGN,61820
1073,FORBES NATURAL HISTORY BUILDING,1816 S. OAK STREET,CHAMPAIGN,61820
1074,Z BUILDING,1901 S. FIRST ST.,CHAMPAIGN,61820
1075,MOTOROLA BUILDING,"2001 S. FIRST, SUITE 201",CHAMPAIGN,61820
1076,SWINE NURSERY TRAILER - EAST,NULL,CHAMPAIGN,61820
1077,SWINE NURSERY TRAILER-WEST,3502  S. FIRST ST.,CHAMPAIGN,
1078,PLAYFIELD FACILITY,S. WRIGHT STREET,URBANA,
1079,ILLINI UNION WAREHOUSE #2,509 W. HAZELWOOD DRIVE,URBANA,61801
1080,INSTITUTE FOR GENOMIC BIOLOGY,1206  W. GREGORY DRIVE,URBANA,61801
1081,CHANUTE FACILITY - STORAGE SHED,1615 TITAN DRIVE,RANTOUL,61866
1083,TECHNOLOGY PLAZA,616 E. GREEN,CHAMPAIGN,61820
1084,WATER SURVEY MAINT. SHOP,2208 GRIFFITH DRIVE,CHAMPAIGN,61820
1085,SOYFACE BARN,NULL,URBANA,61801
1087,1902 FOX DRIVE,1902 FOX DRIVE,CHAMPAIGN,61820
1088,DAIRY FREE STALL BARN,2301 S. LINCOLN,URBANA,61801
1089,CERL-POLE BARN 11,2902 NEWMARK DR.,CHAMPAIGN,61820
1090,HAY STORAGE BUILDING,0 S. RACE STREET,URBANA,61801
1091,1011 W. UNIVERSITY AVE.,1011 W. UNIVERSITY AVE.,URBANA,61801
1092,ABBOTT SCRUBBER BUILDING,21 E. ARMORY,CHAMPAIGN,61820
1093,AERODYNAMICS RESEARCH LABORATORY,1021 W WESTERN AVENUE,URBANA,61801
1094,NORTH CAMPUS PARKING DECK,1201 W. UNIVERSITY AVENUE,URBANA,61801
1095,ENTERPRISE WORKS @ ILLINOIS,60 HAZELWOOD DRIVE,CHAMPAIGN,61820
1096,OAK STREET LIBRARY FACILITY,809 S. OAK STREET,CHAMPAIGN,61820
1097,1313 W. OLD CHURCH ROAD,1313 W. OLD CHURCH ROAD,URBANA,61801
1098,ISGS POLE BARN WEST,2909  S LINCOLN AVENUE,URBANA,
1099,WILDLIFE RESEARCH LABORATORY,1110 W CURTIS,URBANA,61801
 1100-1199,,,,
1100,AVIARY AC BUILDING,# 1100 - 1112 W CURTIS ROAD,URBANA,61801
1101,PONDS SITE LABORATORY,3505 S. LINCOLN AVE.,URBANA,61801
1102,ISGS POLE BARN EAST,2911  S LINCOLN AVENUE,URBANA,
1103,Z-2 BUILDING,2001 SOURTH FIRST STREET,CHAMPAIGN,61820
1104,WATER SURVEY RESEARCH CENTER #1,2204 S. KIRK DR.,CHAMPAIGN,61820
1105,WATER SURVEY RESEARCH CENTER - SHED,30 BAILEY DR.,CHAMPAIGN,61820
1106,WATER SURVEY RESEARCH CENTER #3,2208 S. KIRK DR.,CHAMPAIGN,61820
1107,WATER SURVEY RESEARCH CENTER #4,15 BAILEY DR.,CHAMPAIGN,61820
1108,WATER SURVEY RESEARCH CENTER #5,35 BAILEY DR.,CHAMPAIGN,61820
1109,WATER SURVEY RESEARCH CENTER #6,65 BAILEY DR.,CHAMPAIGN,61820
1110,WATER SURVEY RESEARCH CENTER #7,40 BAILEY DR.,CHAMPAIGN,61820
1111,WATER SURVEY RESEARCH CENTER #8,60 BAILEY DR.,CHAMPAIGN,61820
1112,WATER SURVEY RESEARCH CENTER #9,2210 S. KIRK DR.,CHAMPAIGN,61820
1114,1108 W. STOUGHTON,1108 W. STOUGHTON,CHAMPAIGN,61820
1115,"203 W. CURTIS, SUITE 1",513 W. CURTIS RD.,SAVOY,61874
1116,CERL-MAINBUILDING 2,2902 NEWMARK DR.,CHAMPAIGN,61820
1117,CERL-MAIN BUILDING 3,2902 NEWMARK DR.,CHAMPAIGN,61820
1118,CERL- TESS BUILDING,2902 NEWMARK DR.,CHAMPAIGN,61820
1119,CERL- SOLAR HOUSE 6,2902 NEWMARK DR.,CHAMPAIGN,61820
1120,CERL- CHEMICAL STORAGE BLDG. 7,2902 NEWMARK DR.,CHAMPAIGN,61820
1121,CERL-INCINERATOR BUILDING 8,2902 NEWMARK DRI.,CHAMPAIGN,61820
1122,CERL- UTILITIES BUILDING 9,2902 NEWMARK DR.,CHAMPAIGN,61820
1124,CERL- FOAM PANEL BUILDING 12,2902 NEWMARK DR.,CHAMPAIGN,61820
1125,CERL-TESS ANNEX 13,2902 NEWMARK DR.,CHAMPAIGN,61820
1126,CERL-GREENHOUSE,2902 NEWMARK DR.,CHAMPAIGN,61820
1127,CERL-SOUTH HALL,2902 NEWMARK DR.,CHAMPAIGN,61820
1128,CERL-UCHI,2902 NEWMARK DR.,CHAMPAIGN,61820
1129,CERL-NORTH HALL,2902 NEWMARK DR.,CHAMPAIGN,61820
1130,SCHNABEL LAB,2902 NEWMARK DR.,CHAMPAIGN,61801
1131,"203 W. CURTIS, SUITE 2",513 W. CURTIS RD.,SAVOY,61874
1132,"203 W. CURTIS, SUITE 3",513 W. CURTIS RD,SAVOY,61874
1133,CHRISTOPHER HALL,904 WEST NEVADA STREET,URBANA,61801
1137,C-10 PARKING STRUCTURE,812 S. FIFTH,CHAMPAIGN,61820
1139,WATER SURVEY SHOP & EQUIP. BLDG #11,2208 S. GRIFFITH DR.,CHAMPAIGN,61820
1140,GREGORY PLACE I,701 S. GREGORY,URBANA,61801
1145,ASIAN AMERICAN HOUSE,1210 W. NEVADA,URBANA,61801
1146,S. FARMS-BEEF CATTLE & SHEEP FIELD LAB,4900 S. RACE STREET,URBANA,61802
1147,S. FARMS-EQUIPMENT SHED,4900 S. RACE STREET,URBANA,61802
1148,S. FARMS-SHEEP BARN,4900 S. RACE STREET,URBANA,61802
1149,S. FARMS-MANURE SHED,4900 S. RACE STREET,URBANA,61802
1150,S. FARMS-FEED MIXING,4900 S. RACE STREET,URBANA,61802
1151,S. FARMS-BUNKERS,4900 S. RACE STREET,URBANA,61802
1152,S. FARMS-COW PENS #1,4900 S. RACE STREET,URBANA,61802
1153,S. FARMS-COW PENS #2,4900 S. RACE STREET,URBANA,61802
1154,S. FARMS-CALVING-ISOLATION-WORK AREA,4900 S. RACE STREET,URBANA,61802
1155,S. FARMS-HEIFER/BULL BARN #1,4900 S. RACE STREET,URBANA,61802
1156,S. FARMS-HEIFER/BULL BARN #2,4900 S. RACE STREET,URBANA,61802
1157,S. FARMS-COMMODITY SHED,4900 S. RACE STREET,URBANA,61802
1158,S. FARMS-HAY STORAGE,4900 S. RACE STREET,URBANA,61802
1159,S. FARMS-GROUP FEEDER BARN #1,4900 S. RACE STREET,URBANA,61802
1160,S. FARMS-GROUP FEEDER BARN #2,4900 S. RACE STREET,URBANA,61802
1161,S. FARMS-ISOLATION-WORK AREA,4900 S. RACE STREET,URBANA,61802
1162,S. FARM-INDIVIDUAL FEEDER BARN #1,4900 S. RACE STREET,URBANA,61802
1163,S. FARMS-INDIVIDUAL FEEDER BARN #2,4900 S. RACE STREET,URBANA,61802
1164,S. FARMS-METABOLISM,4900 S. RACE STREET,URBANA,61802
1165,BEE RESEARCH FACILITY,3515 SOUTH LINCOLN AVENUE,URBANA,61801
1166,MOTORCYCLE STORAGE,GERTY DRIVE,CHAMPAIGN,61820
1167,LINCOLN AVENUE EAST GEOL SURV WHSE,4900 S. RACE STREET,URBANA,61802
1168,LINCOLN AVENUE WEST GEOL SURV WHSE,4900 S. RACE STREET,URBANA,61802
1169,EXPOSURE REDUCTION HOUSING UNIT TRAILER A,4900 S. RACE STREET,URBANA,61802
1170,EXPOSURE REDUCTION HOUSING UNIT TRAILER B,4900 S. RACE STREET,URBANA,61802
1171,FSI - HAZMAT STORAGE BUILDING,11 EAST GERTY DRIVE,CHAMPAIGN,61820
1172,FSI - STORAGE BUILDING,11 EAST GERTY DRIVE,CHAMPAIGN,61820
1173,FSI - FIRE APPARATUS STORAGE BUILDING,11 EAST GERTY DRIVE,CHAMPAIGN,61820
1174,FSI - TWO STORY BURN BUILDING,11 EAST GERTY DRIVE,CHAMPAIGN,61820
1175,FSI - RESIDENTIAL BURN BUILDING,11 EAST GERTY DRIVE,CHAMPAIGN,61820
1176,FIRE SERVICE INSTITUTE - RTC PROP,11 EAST GERTY DRIVE,CHAMPAIGN,61820
1177,FSI - FILTER HOUSE,11 EAST GERTY DRIVE,CHAMPAIGN,61820
1178,FSI - SOUTH STORAGE BUILDING,11 EAST GERTY DRIVE,CHAMPAIGN,61820
1179,FIRE SERVICE INSTITUTE - PROPS,11  E GERTY DR,CHAMPAIGN,
1180,2 NORTH LASALLE,2 NORTH LASALLE,CHICAGO,60602
1183,FSI - ARSON TRAINING LABORATORY A,11 EAST GERTY DRIVE,CHAMPAIGN,61820
1184,FSI - ARSON TRAINING LABORATORY B,11 EAST GERTY DRIVE,CHAMPAIGN,61820
1185,FSI - ARSON TRAINING LABORATORY C,11 EAST GERTY DRIVE,CHAMPAIGN,61820
1186,FSI - ARSON TRAINING LABORATORY D,11 EAST GERTY DRIVE,CHAMPAIGN,61820
1187,INDOOR GOLF FACILITY,1415 W. ST. MARY'S ROAD,URBANA,61801
1188,305 E. CURTIS ROAD,305 E. CURTIS ROAD,URBANA,61801
1189,"305 E. CURTIS, POLE SHED",305  E. CURTIS,URBANA,
1190,4202 S. FIRST STREET,,CHAMPAIGN,61820
1191,FLIGHTSTAR HANGAR #8,AIRPORT ROAD,SAVOY,61874
1192,AIRPORT CONTROL TOWER (NEW),AIRPORT ROAD,SAVOY,
1196,"300 SOUTH BROADWAY, SUITE 152, URBANA","300 SOUTH BROADWAY, SUITE 152",URBANA,61801
1197,201 INDUSTRIAL DRIVE,201 INDUSTRIAL DRIVE,URBANA,61802
1198,1112 W. UNIVERSITY AVE,1112  W. UNIVERSITY AVE.,URBANA,
1199,YMCA,1001 S. WRIGHT ST.,CHAMPAIGN,61820
 1200-1299,,,,
1201,"1114 CR, 1200 E",NULL,CHAMPAIGN,61820
1203,230 W. SUPERIOR STREET,230 WEST SUPERIOR STREET,CHICAGO,60606
1206,BUSINESS INSTRUCTIONAL FACILITY,515 GREGORY DRIVE,CHAMPAIGN,61820
1207,"528 E GREEN, CHAMPAIGN",528 E. GREEN,CHAMPAIGN,61820
1208,"505 E. CHALMERS, CHAMPAIGN",505  E. CHALMERS,CHAMPAIGN,
1209,ENGINEERING STUDENT PROJECT LABORATORY,1023 W. WESTERN AVENUE,URBANA,61801
1210,Z-3 BUILDING,1210-2021 S. FIRST STREET,CHAMPAIGN,61820
1211,TECH DEV.& FAB. CENTER,1211-2111 S. OAK ST.,CHAMPAIGN,61820
1212,"150 N. WACKER, CHICAGO",150 N. WACKER,CHICAGO,60606
1213,SPEECH LANGUAGE PATHOLOGY CLINIC,2001 S. OAK,CHAMPAIGN,61820
1214,CONFERENCE CENTER,111 ST. MARY'S ROAD,CHAMPAIGN,61820
1215,IHOTEL,1802 S. FIRST STREET,CHAMPAIGN,61820
1216,POULTRY CAGE HOUSE #3,4513 S. RACE ST.,URBANA,61802
1217,ASHTON WOODS APARTMENTS OFFICE,2221 S. FIRST STREET,CHAMPAIGN,61820
1218,ASHTON WOODS APARTMENTS,2301 S. FIRST STREET,CHAMPAIGN,61820
1219,ASHTON WOODS APARTMENTS,2303 S. FIRST STREET,CHAMPAIGN,61820
1220,ASHTON WOODS APARTMENTS,2305 S. FIRST STREET,CHAMPAIGN,61820
1221,ASHTON WOODS APARTMENTS,2307 S. FIRST STREET,CHAMPAIGN,61820
1222,ASHTON WOODS APARTMENTS,2309 S. FIRST STREET,CHAMPAIGN,61820
1223,ASHTON WOODS APARTMENTS,2215 S. FIRST STREET,CHAMPAIGN,61820
1224,ASHTON WOODS APARTMENTS,2217 S. FIRST STREET,CHAMPAIGN,61820
1225,ASHTON WOODS APARTMENTS,2219 S. FIRST STREET,CHAMPAIGN,61820
1226,ASHTON WOODS APARTMENTS,2311 S. FIRST STREET,CHAMPAIGN,61820
1227,ASHTON WOODS APARTMENTS,2313 S. FIRST STREET,CHAMPAIGN,61820
1228,ASHTON WOODS APARTMENTS,2315 S. FIRST STREET,CHAMPAIGN,61820
1229,ASHTON WOODS APARTMENTS,2317 S. FIRST STREET,CHAMPAIGN,61820
1230,ASHTON WOODS APARTMENTS,2319 S. FIRST STREET,CHAMPAIGN,61820
1232,SHELFORD VIVARIUM GREENHOUSE,608 E. HEALEY,CHAMPAIGN,61820
1233,INTEGRATED BIOPROCESSING LABORATORY,,,
1234,POULTRY SPECIALIZED RESEARCH #2,4513 S. RACE STREET,URBANA,61802
1235,POULTRY HATCHERY #1,4513 S. RACE STREET,URBANA,61802
1236,POULTRY GROWER HOUSE #4,4513 S. RACE STREET,URBANA,61802
1237,POULTRY BREEDER HOUSE #5,4513 S. RACE STREET,URBANA,61802
1238,POULTRY ROOSTER HOUSE,4513 S. RACE STREET,URBANA,61802
1240,AIRPORT HANGAR #9,AIRPORT ROAD,SAVOY,61874
1241,GREGORY PLACE II,1010 W. NEVADA,URBANA,61802
1242,ENERGY BIOSCIENCE - METAL SHED,4301 S. PHILO ROAD,URBANA,61802
1244,NATIONAL PETASCALE COMPUTING FACILITY,1244-1725 S. OAK STREET,CHAMPAIGN,61820
1245,MAXWELL SHED,4202 S. FIRST STREET,SAVOY,61874
1246,10 UNIT T-HANGAR (WEST),7 AIRPORT ROAD,SAVOY,61874
1247,STUDENT DINING AND RESIDENTIAL PROGRAMS BUILDING,301 E. GREGORY DRIVE,CHAMPAIGN,61820
1248,TIMOTHY J. NUGENT HALL,207 E. GREGORY DRIVE,CHAMPAIGN,61820
1249,IKENBERRY COMMONS - RESIDENCE HALL (NUMBER TBD),,CHAMPAIGN,
1250,IKENBERRY COMMONS - RESIDENCE HALL (NUMBER TBD),,CHAMPAIGN,
1251,IKENBERRY COMMONS - RESIDENCE HALL (NUMBER TBD),,CHAMPAIGN,
1252,BOUSFIELD HALL,,CHAMPAIGN,61820
1253,IKENBERRY COMMONS - RESIDENCE HALL (NUMBER TBD),,CHAMPAIGN,
1254,IKENBERRY COMMONS - RESIDENCE HALL (NUMBER TBD),,CHAMPAIGN,
1255,IKENBERRY COMMONS - RESIDENCE HALL (NUMBER TBD),,CHAMPAIGN,
1256,IKENBERRY COMMONS - RESIDENCE HALL (NUMBER TBD),,CHAMPAIGN,
1258,FRUIT RESEARCH FARM - ADMIN. BLDG.,2711 S. RACE STREET,CHAMPAIGN,61820
1259,FRUIT RESEARCH FARM - EQUIPMENT STORAGE,1031 W. GREGORY DRIVE,URBANA,61801
1260,FRUIT RESEARCH FARM - CHEMICAL STORAGE,1301 W. GREGORY DRIVE,URBANA,61801
1261,FSI - LEARNING RESOURCE RESEARCH CENTER,25 GERTY DRIVE,CHAMPAIGN,61820
1262,507 E. GREEN,507 E. GREEN,CHAMPAIGN,61820
1263,MCFARLAND CARILLON,1401  W. LOREDO TAFT DRIVE,URBANA,
1264,703 S. WRIGHT,703  S. WRIGHT,CHAMPAIGN,
1265,901 W. UNIVERSITY,901 W. UNIVERSITY,URBANA,61801
1266,TECH. DEV. & FAB. CENTER 2,,CHAMPAIGN,61820
1267,EBI FARM SHED SOUTH FARMS,4110 S. RACE,URBANA,61801
1268,ROBERT A. EVERS LABORATORY,1909  S. OAK STREET,CHAMPAIGN,61820
1269,EICHELBERGER FIELD - CONCESSIONS,1201 W. FLORIDA AVE.,URBANA,61801
1270,EICHELBERGER FIELD - LOCKER ROOM,1201 W. FLORIDA AVE.,URBANA,61801
1271,704 S. NEIL,704 S. NEIL,CHAMPAIGN,61820
1272,UNIT 2252,2202 N. MARKET,CHAMPAIGN,61820
1273,SPACE CC-8,1408 W. ANTHONY DRIVE,URBANA,61801
1274,SWINE ISOLATION - LL BUILDING,811 W. CURTIS RD,URBANA,61801
1275,SWINE ISOLATION - QUAD PLEX,811 W. CURTIS RD,URBANA,61801
1276,SWINE ISOLATION - OLD CORN CRIB,811 W. CURTIS RD,URBANA,61801
1277,LL NURSERY,3502 S. FIRST ST.,CHAMPAIGN,61820
1278,SWINE RESEARCH CENTER - N14 STORAGE SHED,3502 S. FIRST ST.,CHAMPAIGN,61820
1282,IL RIVER BIOLOGICAL STATION,704 N. SCHRADER AVENUE,HAVANA,62644
1283,ILLINOIS FEILD - CONCESSIONS,FLORIDA AVENUE AND WRIGHT STREET,URBANA,61801
1284,ILLINOIS FIELD - LOCKER ROOM,FLORIDA AVENUE AND WRIGHT STREET,URBANA,61801
1285,ILLINOIS FIELD VISITOR'S LOCKER,1605 S. WRIGHT ST.,CHAMPAIGN,61820
1286,LITTELFUSE RESEARCH CENTER,2110 S. OAK ST.,CHAMPAIGN,61820
1287,RACE ST. FARMSTEAD - FARMHOUSE,4514 S. RACE ST.,URBANA,61801
1288,RACE ST. FARMSTEAD - LARGE SHED,4514 S. RACE ST.,URBANA,61801
1289,RACE ST. FARMSTEAD - SMALL SHED,4514 S. RACE ST.,URBANA,61801
1290,RACE ST. FARMSTEAD - GRAIN BINS,4514 S. RACE ST.,URBANA,61801
1291,BIOMASS DRYING OPEN SHED,4110  S. RACE STREET,URBANA,
1292,NULL,,,
1293,LITTELFUSE RESEARCH CENTER GENERATOR BUILDING,2110 S. OAK STREET,CHAMPAIGN,61820
1294,GABLE HOME,1900 S. FIRST STREET,CHAMPAIGN,61820
1295,FRUIT RESEARCH FARM - PESTICIDE STORAGE UNIT 1,2711 S. RACE STREET,URBANA,61801
1296,FRUIT RESEARCH FARM - PESTICIDE STORAGE UNIT 2,2711 S. RACE STREET,URBANA,61801
1297,FSI - STRIP MALL BURN PROP / STREETSCAPE TRAINING PROP,11 EAST GERTY DRIVE,CHAMPAIGN,61820
1298,CMS STATE GARAGE,201 EISNER ROAD,CHAMPAIGN,61822
1299,STATE POLICE DISTRICT 10,,PESOTUM,61863
 1300-1399,,,,
1300,DIXON SPRINGS: 505-09,RT 1 BOX 256,SIMPSON,
1301,DIXON SPRINGS: 505-10,RT 1 BOX 256,SIMPSON,
1302,DIXON SPRINGS: 124-08,RT 1 BOX 256,SIMPSON,
1303,DIXON SPRINGS: 124-15,RT 1 BOX 256,SIMPSON,
1304,DIXON SPRINGS: 124-16,RT 1 BOX 256,SIMPSON,
1305,DIXON SPRINGS: 124-19,RT 1 BOX 256,SIMPSON,
1306,DIXON SPRINGS: 124-24,RT 1 BOX 256,SIMPSON,
1307,DIXON SPRINGS: 124-25,RT 1 BOX 256,SIMPSON,
1308,DIXON SPRINGS: 124-26,RT 1 BOX 256,SIMPSON,
1309,DIXON SPRINGS: 124-27,RT 1 BOX 256,SIMPSON,
1310,DIXON SPRINGS: 135-09,RT 1 BOX 256,SIMPSON,
1311,DIXON SPRINGS: 214-21,RT 1 BOX 256,SIMPSON,
1312,DIXON SPRINGS: 283-10,RT1 BOX 256,SIMPSON,
1313,DIXON SPRINGS: 319-15,RT1 BOX 256,SIMPSON,
1314,DIXON SPRINGS: 422-01,RT 1 BOX 256,SIMPSON,
1315,DIXON SPRINGS: 422-02,RT 1 BOX 256,SIMPSON,
1316,DIXON SPRINGS: 422-05,RT 1 BOX 256,SIMPSON,
1317,DIXON SPRINGS: 422-08,RT 1 BOX 256,SIMPSON,
1318,DIXON SPRINGS: 422-14,RT 1 BOX 256,SIMPSON,
1319,DIXON SPRINGS: 422-23,RT 1 BOX 256,SIMPSON,
1320,DIXON SPRINGS: 422-25,RT 1 BOX 256,SIMPSON,
1321,DIXON SPRINGS: 422-27,RT 1 BOX 256,SIMPSON,
1322,DIXON SPRINGS: 422-28,RT 1 BOX 256,SIMPSON,
1323,DIXON SPRINGS: 422-32,RT 1 BOX 256,SIMPSON,
1324,DIXON SPRINGS: 422-35,RT 1 BOX 256,SIMPSON,
1325,DIXON SPRINGS: 124-01,RT 1 BOX 256,SIMPSON,
1326,DIXON SPRINGS: 124-02,RT 1 BOX 256,SIMPSON,
1327,DIXON SPRINGS: 124-03,RT 1 BOX 256,SIMPSON,
1328,DIXON SPRINGS: BOAZ FL SCALE HS,RT 1 BOX 256,SIMPSON,
1329,DIXON SPRINGS: 212-39,RT 1 BOX 256,SIMPSON,
1350,DIXON SPRINGS: 293-02,RT 1 BOX 256,SIMPSON,
1351,DIXON SPRINGS: 293-03,RT 1 BOX 256,SIMPSON,
1352,GRAIN BIN DRYER EAST,RT 1 BOX 256,SIMPSON,
1353,DIXON SPRINGS: 293-06,RT 1 BOX 256,SIMPSON,
1354,DIXON SPRINGS: 293-08,RT 1 BOX 256,SIMPSON,
1355,DIXON SPRINGS: 293-09,RT 1 BOX 256,SIMPSON,
1356,DIXON SPRINGS: 293-10,RT 1 BOX 256,SIMPSON,
1357,GRAIN BIN DRYER WEST,RT 1 BOX 256,SIMPSON,
1358,DIXON SPRINGS: 293-16,RT 1 BOX 256,SIMPSON,
1359,DIXON SPRINGS: 293-18,RT 1 BOX 256,SIMPSON,
1360,DIXON SPRINGS: 293-19,RT 1 BOX 256,SIMPSON,
1361,DIXON SPRINGS: 293-20,RT 1 BOX 256,SIMPSON,
1362,DIXON SPRINGS: 293-21,RT 1 BOX 256,SIMPSON,
1363,DIXON SPRINGS: 293-22,RT 1 BOX 256,SIMPSON,
1364,DIXON SPRINGS: 293-24,RT 1 BOX 256,SIMPSON,
1365,DIXON SPRINGS: PEST RINSATE,RT 1 BOX 256,SIMPSON,
1370,DIXON SPRINGS STORAGE SHED SCHUCHARDT,RT 1 BOX 256,SIMPSON,
1371,DIXON SPRINGS DWELLING SCHUCHARDT (NONE),RT 1 BOX 256,SIMPSON,
1372,DIXON SPRINGS WATER SYSTEM HORTICULTURE,RT 1 BOX 256,SIMPSON,
1373,DIXON SPRINGS HEADHOUSE (NONE),RT 1 BOX 256,SIMPSON,
1374,DIXON SPRINGS GREENHOUSE (NONE),RT 1 BOX 256,SIMPSON,
1375,DIXON SPRINGS GREENHOUSE SHOP (NONE),RT 1 BOX 256,SIMPSON,
1376,DIXON SPRINGS DWELLING BROWN (NONE),RT 1 BOX 256,SIMPSON,
1377,DIXON SPRINGS WEATHER STATION (NONE),RT 1 BOX 256,SIMPSON,
1378,DIXON SPRINGS UOFI HORTICULTURE #1 HOUSE,RT 1 BOX 256,SIMPSON,
1379,DIXON SPRINGS STORAGE SHED (NONE),RT 1 BOX 256,SIMPSON,
1380,DIXON SPRINGS DWELLING IFRC (NONE),RT 1 BOX 256,SIMPSON,
1381,DIXON SPRINGS DWELLING ARNOLD (NONE),RT 1 BOX 256,SIMPSON,
1382,DIXON SPRINGS GARAGE IFRC (NONE),RT 1 BOX 256,SIMPSON,
1383,DIXON SPRINGS DWELLING WRIGHT (NONE),RT 1 BOX 256,SIMPSON,
1384,DIXON SPRINGS GARAGE WRIGHT (NONE),RT 1 BOX 256,SIMPSON,
1385,DIXON SPRINGS HOUSE TRAILER (NONE),RT 1 BOX 256,SIMPSON,
1386,DIXON SPRINGS LAB INSECTARY APPLEBY NONE,RT 1 BOX 256,SIMPSON,
1387,DIXON SPRINGS STORAGE SHED/INSECTARY,RT 1 BOX 256,SIMPSON,
1388,DIXON SPRINGS STORAGE SHED (NONE),RT 1 BOX 256,SIMPSON,
1389,DIXON SPRINGS STORAGE SHED (NONE),RT 1 BOX 256,SIMPSON,
1390,DIXON SPRINGS STORAGE SHED (NONE),RT 1 BOX 256,SIMPSON,
1391,DIXON SPRINGS DORM & MEETING HALL (NONE),RT 1 BOX 256,SIMPSON,
1392,DIXON SPRINGS LAB (NONE),RT 1 BOX 256,SIMPSON,
1393,"DIXON SPRINGS OFFICE,ADMIN BLDG (NONE)",RT 1 BOX 256,SIMPSON,
1394,DIXON SPRINGS RUN OFF SHED (NONE),RT 1 BOX 256,SIMPSON,
1395,DIXON SPRINGS RUN OFF SHED (NONE),RT 1 BOX 256,SIMPSON,
1396,DIXON SPRINGS PAVILION WEST OF DORM NONE,RT 1 BOX 256,SIMPSON,
1397,DIXON SPRINGS FORESTRY SHOP (NONE),RT 1 BOX 256,SIMPSON,
1398,DIXON SPRINGS PIG BARN 1,RT 1 BOX 256,SIMPSON,
1399,DIXON SPRINGS PIG BARN 2,RT 1 BOX 256,SIMPSON,
1400,DIXON SPRINGS PIG BARN 3,RT 1 BOX 256,SIMPSON,
1401,DIXON SPRINGS PIG BARN LAB,RT 1 BOX 256,SIMPSON,
1402,DIXON SPRINGS GREEN BARN,RT 1 BOX 256,SIMPSON,
1403,DIXON SPRINGS SHOP,RT 1 BOX 256,SIMPSON,
1404,DIXON SPRINGS STUDENT HOUSE,RT 1 BOX 256,SIMPSON,
1405,DIXON SPRINGS HART HOUSE,RT 1 BOX 256,SIMPSON,
1406,DIXON SPRINGS ISOLATION/LOCKER ROOM,RT 1 BOX 256,SIMPSON,
1407,DIXON SPRINGS OFFICE/LAB,RT 1 BOX 256,SIMPSON,
1408,DIXON SPRINGS CULLOM BARN,RT 1 BOX 256,SIMPSON,
1409,DIXON SPRINGS WIDEMAN BARN,RT 1 BOX 256,SIMPSON,
1410,DIXON SPRINGS STUD BARN,RT 1 BOX 256,SIMPSON,
1411,DIXON SPRINGS HART GARAGE,RT 1 BOX 256,SIMPSON,
1412,DIXON SPRINGS STUDENT GARAGE,RT 1 BOX 256,SIMPSON,
1413,DIXON SPRINGS SHACK,RT 1 BOX 256,SIMPSON,
1414,DIXON SPRINGS GESTATION SHELTER,RT 1 BOX 256,SIMPSON,
1415,DIXON SPRINGS HAY SHED AT CULLOM,RT 1 BOX 256,SIMPSON,
1416,DIXON SPRINGS RED BARN,RT 1 BOX 256,SIMPSON,
1417,DIXON SPRINGS FIREHOUSE,RT 1 BOX 256,SIMPSON,
1418,DIXON SPRINGS SWINE GROW-FINISH SHELTER,RT 1 BOX 256,SIMPSON,
1420,ST CHARLES HORT. RES CTR - MAIN BLDG,3480   LINCOLN HIGHWAY,"ST CHARLES, IL",
1421,ST CHARLES HORT. RES CTR - GREENHOUSE,3480   LINCOLN HIGHWAY,"ST CHARLES, IL",
1422,ST CHARLES HORT. RES CTR - GARAGE,3480   LINCOLN HIGHWAY,"ST CHARLES, IL",
1423,BROWNSTOWN AG. RES CTR - EQUIP/SUPPLIES STORAGE,ROUTE 185,"BROWNSTOWN, IL",
1424,BROWNSTOWN AG. RES CTR - OFFICE/SMALL DRY LAB,ROUTE 185,"BROWNSTOWN, IL",
1425,BROWNSTOWN AG. RES CTR - SHOP/EQUIP STORAGE,ROUTE 185,"BROWNSTOWN, IL",
1426,BROWNSTOWN AG. RES CTR - EQUIPMENT STORAGE,ROUTE 185,"BROWNSTOWN, IL",
1427,BROWNSTOWN AG. RES CTR - PESTICIDES,ROUTE 185,"BROWNSTOWN, IL",
1428,NORTHERN IL AG. RES CTR - RESIDENCE,14509   UNIVERSITY ROAD,"SHABBONA, IL",
1429,NORTHERN IL AG. RES CTR - GARAGE,14509   UNIVERSITY ROAD,"SHABBONA, IL",
1430,"NORTHERN IL AG. RES CTR - OFFICE, SHOP, MTG RM, STORAGE",14509   UNIVERSITY ROAD,"SHABBONA, IL",
1431,NORTHERN IL AG. RES CTR - OLD SHOP & MACHINERY STORAGE,14509   UNIVERSITY ROAD,"SHABBONA, IL",
1432,NORTHERN IL AG. RES CTR - PESTICIDE BUILDING,14509   UNIVERSITY ROAD,"SHABBONA, IL",
1433,NORTHERN IL AG. RES CTR - GRAIN BINS (3),14509   UNIVERSITY ROAD,"SHABBONA, IL",
1434,NORTHERN IL AG. RES CTR - GREENHOUSE,14509   UNIVERSITY ROAD,"SHABBONA, IL",
1435,NORTHWESTERN IL AG. RES & DEMO CTR - GARAGE,321   210TH AVENUE,"MONMOUTH, IL",
1436,NORTHWESTERN IL AG. RES & DEMO CTR - QUONSEET,321   210TH AVENUE,"MONMOUTH, IL",
1437,NORTHWESTERN IL AG. RES & DEMO CTR - WOODEN SHED #1,321   210TH AVENUE,"MONMOUTH, IL",
1438,NORTHWESTERN IL AG. RES & DEMO CTR - WOODEN SHED #2,321   210TH AVENUE,"MONMOUTH, IL",
1439,NORTHWESTERN IL AG. RES & DEMO CTR - WOODEN SHED #3,321   210TH AVENUE,"MONMOUTH, IL",
1440,NORTHWESTERN IL AG. RES & DEMO CTR - SEED HOUSE,321   210TH AVENUE,"MONMOUTH, IL",
1441,NORTHWESTERN IL AG. RES & DEMO CTR - SHOP/OFFICE BUILDING,321   210TH AVENUE,"MONMOUTH, IL",
1442,NORTHWESTERN IL AG. RES & DEMO CTR - PESTICIDE BUILDING,321   210TH AVENUE,"MONMOUTH, IL",
1443,NORTHWESTERN IL AG. RES & DEMO CTR - GRAIN BINS (3) 3500 BU,321   210TH AVENUE,"MONMOUTH, IL",
1444,NORTHWESTERN IL AG. RES & DEMO CTR - GRAIN BINS (2) 1200 BU,321   210TH AVENUE,"MONMOUTH, IL",
1445,ORR AG. RES & DEMO CTR - MAIN BUILDING,37803   STATE HWY 104,"PERRY, IL",
1446,ORR AG. RES & DEMO CTR - WHITE MACHINE SHED,37803   STATE HWY 104,"PERRY, IL",
1447,ORR AG. RES & DEMO CTR - CHEMICAL STORAGE BUILDING,37803   STATE HWY 104,"PERRY, IL",
1448,"ORR AG. RES & DEMO CTR - CENTER RESIDENCE, OFFICE",37803   STATE HWY 104,"PERRY, IL",
1449,ORR AG. RES & DEMO CTR - MACHINE SHED,37803   STATE HWY 104,"PERRY, IL",
1450,"ORR AG. RES & DEMO CTR - CATTLE HANDLING, SHOP, STORAGE",37803   STATE HWY 104,"PERRY, IL",
1451,ORR AG. RES & DEMO CTR - GRAIN STORAGE FACILITY,37803   STATE HWY 104,"PERRY, IL",
1452,ORR AG. RES & DEMO CTR - CATTLE LOAFING SHED #1,37803   STATE HWY 104,"PERRY, IL",
1453,ORR AG. RES & DEMO CTR - CATTLE LOAFING SHED #2,37803   STATE HWY 104,"PERRY, IL",
1454,ORR AG. RES & DEMO CTR - CATTLE LOAFING SHED #3,37803   STATE HWY 104,"PERRY, IL",
1455,ORR AG. RES & DEMO CTR - CATTLE LOAFING SHED #4,37803   STATE HWY 104,"PERRY, IL",
1456,ORR AG. RES & DEMO CTR - CATTLE LOAFING SHED #5,37803   STATE HWY 104,"PERRY, IL",
1457,ORR AG. RES & DEMO CTR - CATTLE LOAFING SHED #6,37803   STATE HWY 104,"PERRY, IL",
1458,ORR AG. RES & DEMO CTR - BEEF CATTLE RESIDENCE,37803   STATE HWY 104,"PERRY, IL",
1459,ORR AG. RES & DEMO CTR - COMMODITY STORAGE SHED,37803   STATE HWY 104,"PERRY, IL",
1460,ORR AG. RES & DEMO CTR - HAY STORAGE #1,37803   STATE HWY 104,"PERRY, IL",
1461,ORR AG. RES & DEMO CTR - HAY STORAGE #2,37803   STATE HWY 104,"PERRY, IL",
1462,ORR AG. RES & DEMO CTR - CALVING BARN,37803   STATE HWY 104,"PERRY, IL",
1463,CROP SCIENCES RESEARCH AND EDUCATION CENTER - MAIN BUILDING,1205 COUNTY ROAD 1200N,CHAMPAIGN,61822
1464,10 UNIT T-HANGAR (EAST),7 AIRPORT ROAD,SAVOY,61874
1465,5 UNIT T-HANGAR (NORTH),WILLARD AIRPORT,SAVOY,61874
1466,"PROVENA MEDICAL OFFICE BUILDING, SUITE 207",1405 W. PARK ST.,URBANA,61801
1467,FSI - INDUSTRIAL TRAINING PROP,11 EAST GERTY DRIVE,CHAMPAIGN,61820
1468,FSI - TRENCH TRAINING PROP,11 EAST GERTY DRIVE,CHAMPAIGN,61820
1469,FSI - RAILROAD PROP,11 EAST GERTY DRIVE,CHAMPAIGN,61820
1470,FSI - GRAIN BIN PROP,11 EAST GERTY DRIVE,CHAMPAIGN,61820
1471,FSI - HEAVY COLLAPSE PILE,11 EAST GERTY DRIVE,CHAMPAIGN,61820
1472,FSI - COLLAPSE BASE OF OPERATIONS,11 EAST GERTY DRIVE,CHAMPAIGN,61820
1473,SOYFACE QUONSET,NULL,URBANA,61801
1474,SOYFACE TRAILER,NULL,URBANA,61801
1475,BROWNFIELD WOODS,N HIGH CROSS ROAD,URBANA,NULL
1476,116 N. WALNUT ST.,116 N. WALNUT ST.,CHAMPAIGN,61820
1477,"CASCADES CENTER, SUITE 201",400 CHATMAN ROAD,SPRINGFIELD,62704
1478,"400 - 440 NORTH CAPITAL ST NW, WASHINGTON DC",400-440 NORTH CAPITAL ST NW,WASHINGTON DC,20001
1479,509 W UNIVERSITY AVE,509 W UNIVERSITY AVE,URBANA,61801
1480,"8 S MICHIGAN, SUITE 814, CHICAGO",8 S MICHIGAN,CHICAGO,60603
1481,"LEWIS AND CLARK COMMUNITY COLLEGE, HASKELL HALL",NULL,GODREY,62035
1482,EBI FARM GREENHOUSE SOUTH FARMS,4110 S. RACE,URBANA,61801
1483,TECHNICAL DEVELOPMENT AND FABRICATION CENTER III,210 HAZELWOOD DRIVE,CHAMPAIGN,61820
1484,LINCOLN COMMERCE CENTER,726-732 KILLARNEY,URBANA,61801
1485,"SOLAR DECATHLON HOUSE ""RE_HOME"" 2011",3605 S. RACE STREET,URBANA,61801
1487,PTI-CONTROL BOOTH,609 1/2 E. CURTIS ROAD,CHAMPAIGN,61820
1488,512 E GREEN - 4TH FLOOR,512 E GREEN,CHAMPAIGN,61820
1490,EBI SITE OFFICE,4301 S. PHILO ROAD,URBANA,61801
1491,EBI CORN CRIB,4301 S. PHILO ROAD,URBANA,61801
1492,AERONOMY SHED,1600E AND .7 MILES N OF 1900N,URBANA,61801
1493,AERONOMY POLE BARN,1600E AND .7 MILES N OF 1900N,URBANA,61801
1494,CENTER FOR WOUNDED VETERANS IN HIGHER EDUCATION,908 W. NEVADA,URBANA,61801
1502,"1203 W OREGON, URBANA -GROUNDS SHED",1203 W. OREGON,URBANA,61801
1503,1110 W. STOUGHTON,1110 W. STOUGHTON,CHAMPAIGN,61820
1504,INFORMATION CENTERS,MULTIPLE LOCATIONS,CHAMPAIGN,
1507,Swine Research Center  Swine Calorimeter Unit,3502 S. First Street,CHAMPAIGN,61820
,(additional building at Swine Research Center),,,
1508,Crop Sciences Research Facility,321 210th Avenue, MONMOUTH,61462
 1509,YAHOO BUILDING - Z-4,1908 S. FIRST,CHAMPAIGN,61820
1510," Main Building 4, UIUC  CERL", 2902 Newmark Drive,CHAMPAIGN,61822
1511,PIGLET NUTRITION AND COGNITION LAB,4900 S. RACE ST.,URBANA,61801
1512,CERL  Plant/Soil Response Facility,2902 Newmark Drive,CHAMPAIGN,61820
2001,ALLERTON MAIN HOUSE-RAPCC,MONTICELLO,MONTICELLO,61856
2002,ALLERTON GATEHOUSE-RAPCC,3502 S. FIRST ST.,MONTICELLO,61856
2003,ALLERTON HOUSE IN THE WOODS-RAPCC,MONTICELLO,MONTICELLO,61856
2004,ALLERTON EVERGREEN LODGE-RAPCC,MONTICELLO,MONTICELLO,61856
2005,ALLERTON METAL BLDG-4H,MONTICELLO,MONTICELLO,61856
2006,ALLERTON GARAGE-RAPCC,MONTICELLO,MONTICELLO,61856
2007,ALLERTON WEST GARDEN CTG-RAPCC,MONTICELLO,MONTICELLO,61856
2008,ALLERTON TOOL HOUSE-RAPCC,MONTICELLO,MONTICELLO,61856
2009,ALLERTON CHICKEN HOUSE-RAPCC,MONTICELLO,MONTICELLO,61856
2010,ALLERTON VISITOR'S CENTER-RAPCC,MONTICELLO,MONTICELLO,61856
2011,ALLERTON MAIN TOILET-RAPCC,MONTICELLO,MONTICELLO,61856
2012,ALLERTON RIFLE SHELTER-4H,MONTICELLO,MONTICELLO,61856
2013,ALLERTON CAR SHOP-RAPCC,MONTICELLO,MONTICELLO,61856
2014,ALLERTON FARM HOUSE 1B-RAPCC,MONTICELLO,MONTICELLO,61856
2015,ALLERTON WOODSHOP-RAPCC,MONTICELLO,MONTICELLO,61856
2016,ALLERTON GARAGE-RAPCC,MONTICELLO,MONTICELLO,61856
2017,ALLERTON GARAGE-RAPCC,MONTICELLO,MONTICELLO,61856
2018,ALLERTON SOUTH GARDEN CTG-RAPCC,MONTICELLO,MONTICELLO,61856
2019,ALLERTON METAL/WELDING-RAPCC,MONTICELLO,MONTICELLO,61856
2020,ALLERTON IMPLEMENT SHED-RAPCC,MONTICELLO,MONTICELLO,61856
2021,ALLERTON GOLD BUDDHAS-RAPCC,MONTICELLO,MONTICELLO,61856
2022,ALLERTON WELLHOUSE-RAPCC,MONTICELLO,MONTICELLO,61856
2023,ALLERTON WATER TANK-RAPCC,MONTICELLO,MONTICELLO,61856
2024,ALLERTON WASTEWATER PLANT-RAPCC,MONTICELLO,MONTICELLO,61856
2025,ALLERTON WASTEWATER LIFT-RAPCC,MONTICELLO,MONTICELLO,61856
2026,ALLERTON DAIRY BARN-RAPCC,MONTICELLO,MONTICELLO,61856
2027,ALLERTON CAMP OFFICE-4H,MONTICELLO,MONTICELLO,61856
2028,ALLERTON TRADING POST-4H,MONTICELLO,MONTICELLO,61856
2029,ALLERTON CRAFT SHOP-4H,MONTICELLO,MONTICELLO,61856
2030,ALLERTON DINING HALL-4H,MONTICELLO,MONTICELLO,61856
2031,ALLERTON SHELTER HOUSE-4H,MONTICELLO,MONTICELLO,61856
2032,ALLERTON SERVICE BUILDING-4H,MONTICELLO,MONTICELLO,61856
2033,ALLERTON WELLHOUSE-4H,MONTICELLO,MONTICELLO,61856
2034,ALLERTON TOILET-4H,MONTICELLO,MONTICELLO,61856
2035,ALLERTON TOILET-4H,MONTICELLO,MONTICELLO,61856
2036,ALLERTON TOILET-4H,MONTICELLO,MONTICELLO,61856
2037,ALLERTON TOILET-4H,MONTICELLO,MONTICELLO,61856
2038,ALLERTON TOILET-4H,MONTICELLO,MONTICELLO,61856
2039,ALLERTON TOILET-4H,MONTICELLO,MONTICELLO,61856
2040,ALLERTON TOILET-4H,MONTICELLO,MONTICELLO,61856
2041,ALLERTON RESIDENCE-4H,MONTICELLO,MONTICELLO,61856
2042,ALLERTON GARAGE-4H,MONTICELLO,MONTICELLO,61856
2043,ALLERTON NATURE CABIN-4H,MONTICELLO,MONTICELLO,61856
2044,ALLERTON SHELTER-4H,MONTICELLO,MONTICELLO,61856
2045,ALLERTON WINTER CABIN-4H,MONTICELLO,MONTICELLO,61856
2046,ALLERTON STAFF CABIN-4H,MONTICELLO,MONTICELLO,61856
2047,ALLERTON BOAT HOUSE-4H,MONTICELLO,MONTICELLO,61856
2048,ALLERTON LAUNDRY-4H,MONTICELLO,MONTICELLO,61856
2049,ALLERTON CABIN-4H,MONTICELLO,MONTICELLO,61856
2050,ALLERTON NURSE'S CABIN-4H,MONTICELLO,MONTICELLO,61856
2051,ALLERTON SLEEPING CABIN-4H,MONTICELLO,MONTICELLO,61856
2052,ALLERTON SLEEPING CABIN-4H,MONTICELLO,MONTICELLO,61856
2053,ALLERTON SLEEPING CABIN-4H,MONTICELLO,MONTICELLO,61856
2054,ALLERTON SLEEPING CABIN-4H,MONTICELLO,MONTICELLO,61856
2055,ALLERTON SLEEPING CABIN-4H,MONTICELLO,MONTICELLO,61856
2056,ALLERTON SLEEPING CABIN-4H,MONTICELLO,MONTICELLO,61856
2057,ALLERTON SLEEPING CABIN-4H,MONTICELLO,MONTICELLO,61856
2058,ALLERTON SLEEPING CABIN-4H,MONTICELLO,MONTICELLO,61856
2059,ALLERTON SLEEPING CABIN-4H,MONTICELLO,MONTICELLO,61856
2060,ALLERTON SLEEPING CABIN-4H,MONTICELLO,MONTICELLO,61856
2061,ALLERTON SLEEPING CABIN-4H,MONTICELLO,MONTICELLO,61856
2062,ALLERTON SLEEPING CABIN-4H,MONTICELLO,MONTICELLO,61856
2063,ALLERTON SLEEPING CABIN-4H,MONTICELLO,MONTICELLO,61856
2064,ALLERTON SLEEPING CABIN-4H,MONTICELLO,MONTICELLO,61856
2065,ALLERTON SLEEPING CABIN-4H,MONTICELLO,MONTICELLO,61856
2066,ALLERTON SLEEPING CABIN-4H,MONTICELLO,MONTICELLO,61856
2067,ALLERTON SLEEPING CABIN-4H,MONTICELLO,MONTICELLO,61856
2068,ALLERTON SLEEPING CABIN-4H,MONTICELLO,MONTICELLO,61856
2069,ALLERTON SLEEPING CABIN-4H,MONTICELLO,MONTICELLO,61856
2070,ALLERTON SLEEPING CABIN-4H,MONTICELLO,MONTICELLO,61856
2071,ALLERTON SLEEPING CABIN-4H,MONTICELLO,MONTICELLO,61856
2072,ALLERTON SLEEPING CABIN-4H,MONTICELLO,MONTICELLO,61856
2073,ALLERTON SLEEPING CABIN-4H,MONTICELLO,MONTICELLO,61856
2074,ALLERTON SLEEPING CABIN-4H,MONTICELLO,MONTICELLO,61856
2075,ALLERTON SLEEPING CABIN-4H,MONTICELLO,MONTICELLO,61856
2076,ALLERTON SLEEPING CABIN-4H,MONTICELLO,MONTICELLO,61856
2077,ALLERTON SLEEPING CABIN-4H,MONTICELLO,MONTICELLO,61856
2078,ALLERTON SLEEPING CABIN-4H,MONTICELLO,MONTICELLO,61856
2079,ALLERTON SLEEPING CABIN-4H,MONTICELLO,MONTICELLO,61856
2080,ALLERTON SLEEPING CABIN-4H,MONTICELLO,MONTICELLO,61856
2081,ALLERTON STORAGE SHED-4H,MONTICELLO,MONTICELLO,61856
2082,ALLERTON SOUTHEAST GARDEN CTG-RAPCC,MONTICELLO,MONTICELLO,61856
2083,ALLERTON WHITE COTTAGE-RAPCC,MONTICELLO,MONTICELLO,61856
2084,ALLERTON STORAGE SHED-RAPCC,MONTICELLO,MONTICELLO,61856
2085,ALLERTON GARAGE-RAPCC,MONTICELLO,MONTICELLO,61856
2086,ALLERTON FARMHOUSE #8-RAPCC,MONTICELLO,MONTICELLO,61856
2087,ALLERTON GARAGE-RAPCC,MONTICELLO,MONTICELLO,61856
2088,ALLERTON SHED-RAPCC,MONTICELLO,MONTICELLO,61856
2089,ALLERTON NORTH GARDEN CTG-RAPCC,MONTICELLO,MONTICELLO,61856
2090,ALLERTON SHED-RAPCC,MONTICELLO,MONTICELLO,61856
2091,ALLERTON GARAGE-RAPCC,MONTICELLO,MONTICELLO,61856
2092,ALLERTON NORTHWEST GARDEN CTG-RAPCC,MONTICELLO,MONTICELLO,61856
2093,ALLERTON NORTHEAST GARDEN CTG-RAPCC,MONTICELLO,MONTICELLO,61856
2094,ALLERTON GARAGE-RAPCC,MONTICELLO,MONTICELLO,61856
2095,ALLERTON SHED-RAPCC,MONTICELLO,MONTICELLO,61856
2096,ALLERTON SHED-RAPCC,MONTICELLO,MONTICELLO,61856
2097,ALLERTON HORSE BARN-RAPCC,MONTICELLO,MONTICELLO,61856
2098,ALLERTON SUMMER KITCHEN-RAPCC,MONTICELLO,MONTICELLO,61856
2099,ALLERTON GARAGE-RAPCC,MONTICELLO,MONTICELLO,61856
 2100-2199,,,,
2101,ALLERTON SLEEPING CABIN 4-H #22,499 OLD TIMBER RD,MONTICELLO,61856
2102,ALLERTON MAINTENANCE SHED,515 OLD TIMBER RD,MONTICELLO,61856
2105,I-CYT,2105-2100 S. OAK ST.,CHAMPAIGN,61820
2106,8450 MONTCLAIR AVENUE,8450 MONTCLAIR AVENUE,BRIGHTON,62012
2107,926 WILLARD DRIVE - SUITE 242,926 WILLARD DRIVE,GREEN BAY,54304
2108,1685 CARELTON WAY,1685 CARELTON WAY,OAK HARBOR,98277
2109,1100 WARRENVILLE ROAD,1100 WARRENVILLE ROAD,NAPERVILLE,60563
2110,RICE BUILDING,"815 W. VAN BUREN ST., SUITE 110",CHICAGO,60607
2111,FLORIDA AVENUE APARTMENTS,1205 E. FLORIDA AVE.,URBANA,61801
2112,600 S. SECOND ST. - SUITE 403,600 S. SECOND ST.,SPRINGFIELD,62701
2113,4550 KENNEDY DRIVE,4550 KENNEDY DRIVE,EAST MOLINE,61244
2114,"1010 JORIE BLVD. - SUITES 200,244,248,250",1010 JORIE BLVD.,OAK BROOK,60523
2115,WILLOW HILL EXECUTIVE CENTER,540-550 FRONTAGE ROAD #3017,NORTHFIELD,60093
2116,146 & 148 E. FERGUSON,146 & 148 E. FERGUSON,WOOD RIVER,62095
2117,LINCOLN TOWER,520 S. SECOND STREET,SPRINGFEILD,62701
2118,SECOND STREET - SUITE 403,SECOND STREET,SPRINGFIELD,62756
2119,"OAK BROOK - SUITES 200, 248, 250",NULL,OAK BROOK,60523
2121,UNIVERSITY PARK DRIVE,UNIVERSITY PARK DRIVE,EDWARDSVILLE,62025
2122,1140 E. JACKSON,1140 E. JACKSON,MACOMB,61455
2123,1206 W. JACKSON,1206 W. JACKSON,MACOMB,61455
2124,16 & 18 E. FERGUSON,16 & 18 E. FERGUSON,WOOD RIVER,62095
2125,CASCADES CENTER,"400 CHATUM ROAD, SUITE 201",SPRINGFIELD,62704
2126,SAN FRANSISCO - SUITE 403,501 SECOND STREET,SAN FRANSISCO,94107
2127,604 E. VANDALIA,604 E. VANDALIA,JACKSONVILLE,62650
2128,6151 MAIN STREET,6151 MAIN STREET,SALISBURY,NULL
2129,6810 FOREST HILLS ROAD,6810 FOREST HILLS ROAD,LOVES PARK,61111
2130,TAYLOR STUDIOS - STUDIO 2,1310B HARMON,RANTOUL,61866
2131,COMPOSTING SITE,S. RACE STREET,URBANA,61801
2132,1204 W. JACKSON,1204 W. JACKSON,MACOMB,61455
 2500-2599,,,,
2502,1430 Huey Road,1430 Huey Road,"Huey, IL",62231
2505,2930 Montvale  Suite B,2930 Montvale  Suite B,"Springfield, IL",62701
2507,COUNTY PLAZA, 102 E. MAIN ST.,URBANA, 61801
 7000-8399,,,,
7400,I SPACE,230 WEST SUPERIOR,CHICAGO,60610
8239,TRAFFIC CONTROL SYSTEM DISTRIBUTION SYSTEM,,,
8244,BROAD BAND DISTRIBUTION SYSTEM,,,
8254,CHEMICAL & LIFE SCIENCES LABORATORY CHILLER PLANT,601 S. GOODWIN,URBANA,61801
8283,OAK STREET CHILLER PLANT,1305 S. OAK STREET,CHAMPAIGN,61820
8287,NATURAL GAS TRANSMISSION PIPELINE,,,
8288,NATURAL GAS DISTRIBUTION SYSTEM,,,
8301,STEAM DISTRIBUTION SYSTEM,,,
8302,CHILL WATER DISTRIBUTION SYSTEM,,,
8303,WATER DISTRIBUTION SYSTEM,,,
8304,SANITARY SEWER DISTRIBUTION SYSTEM,,,
8306,COMPRESSED AIR DISTRIBUTION SYSTEM,,,
8307,STORM WATER DISTRIBUTION SYSTEM,,,
8315,ABBOTT MOAB TRAILER - EAST,1501 S. OAK STREET,CHAMPAIGN,61820
8316,TES PUMP HOUSE,1705 S. OAK ST.,CHAMPAIGN,61820
8317,ABBOTT ELECTROSTATIC PRECIPITATORS BUILDING,1117 S. OAK,CHAMPAIGN,61820
8318,ABBOTT TRACTOR HOUSE,1117 S. OAK,CHAMPAIGN,61820
8319,ABBOTT BLOWER BUILDING,1117 S. OAK,CHAMPAIGN,61820
8320,ABBOTT BLUE TANK BUILDING,1117 S. OAK,CHAMPAIGN,61820
8321,ABBOTT REVERSE OSMOSIS BUILDING,1117 S. OAK,CHAMPAIGN,61820
8322,ABBOTT ASH SILO,1117 S. OAK,CHAMPAIGN,61820
8323,ABBOTT CEM SHACK,1117 S. OAK,CHAMPAIGN,61820
8324,ABBOTT CRUSHER HOUSE,1117 S. OAK,CHAMPAIGN,61820
8325,ABBOTT THAW HOUSE,1117 S. OAK,CHAMPAIGN,61820
8326,ABBOTT FILTER PRESS BUILDING,1117 S. OAK,CHAMPAIGN,61820
8327,ABBOTT MOAB TRAILER - WEST,1501 S. OAK STREET,CHAMPAIGN,61820
8328,AIRPORT AIRFIELD LIGHTING VAULT,18 AIRPORT ROAD,SAVOY,61874
8400,ELECTRICAL DISTRIBUTION SYSTEM,,,
8401,TELECOMMUNICATION DISTRIBUTION SYSTEM,,,
8402,IRRIGATION DISTRIBUTION SYSTEM,,,
8403,LIGHTING DISTRIBUTION SYSTEM,,,
ADMIN,NULL,,,
BUSEY EVANS,BUSEY EVANS RESIDENCE HALLS,,,
CAMPUS,GENERAL CAMPUS LOCATION,,,
FLEET,NULL,,,
FLORIDA AVENUE,FLORIDA AVENUE RESIDENCE HALLS,,,
GOODWIN GREEN,GOODWIN GREEN APARTMENTS,,,
GREGORY DRIVE,GREGORY DRIVE RESIDENCE HALLS,,,
GROUNDS,CAMPUS GROUNDS,,,
ILLINOIS STREET,ILLINOIS STREET RESIDENCE HALLS,,,
LINCOLN AVENUE,LINCOLN AVENUE RESIDENCE HALLS,,,
ORCHARD DOWNS,ORCHARD DOWNS APARTMENTS,,,
OUTDOOR OBJECT,OUTDOOR OBJECTS,,,
PARKING LOTS,CAMPUS PARKING LOTS,,,
PEABODY DRIVE,PEABODY DRIVE RESIDENCE HALLS,,,
PENNSYLVANIA AV,PENNSYLVANIA AVENUE RESIDENCE HALLS,,,
TAFT VAN DOREN,TAFT VAN DOREN RESIDENCE HALLS,,,
TELECOM,TELECOMMUNICATIONS DISTRIBUTION SYSTEM,,,
TRIAD,TRIAD RESIDENCE HALLS,,,
,,,,
,,,,
Source: http://www.fs.illinois.edu/about-us/building-list-by-building-number,,,,
,,,,
FOLLOW FACILITIES & SERVICES,,,,
,,,,
,,,,
,,,,
  ,,,,
,,,,
© University of Illinois Board of Trustees   Site Map    Accessibility    Contact Web Admin,,,,
